{"type":"FeatureCollection","features":[{"type":"Feature","properties":{"id":"AL","name":"Albania","eu":false},"geometry":{"type":"MultiPolygon","coordinates":[[[[19.73,42.63],[19.83,42.47],[20.08,42.56],[20.27,42.4],[20.49,42.22],[20.59,42.03],[20.59,41.98],[20.59,41.88],[20.56,41.85],[20.52,41.72],[20.54,41.67],[20.55,41.62],[20.56,41.58],[20.48,41.54],[20.54,41.4],[20.5,41.32],[20.6,41.09],[20.67,41.07],[20.74,40.93],[20.84,40.93],[20.98,40.86],[21.06,40.62],[20.78,40.35],[20.61,40.08],[20.45,40.06],[20.36,39.98],[20.39,39.79],[20.3,39.81],[20.3,39.73],[20.23,39.66],[20.01,39.69],[19.99,39.86],[19.87,40.01],[19.39,40.31],[19.47,40.43],[19.32,40.64],[19.44,41.0],[19.52,41.27],[19.43,41.37],[19.56,41.58],[19.56,41.62],[19.57,41.67],[19.59,41.78],[19.52,41.84],[19.37,41.84],[19.38,41.98],[19.38,42.08],[19.32,42.22],[19.47,42.4],[19.62,42.58],[19.73,42.63],[19.73,42.64],[19.73,42.63]]]]}},{"type":"Feature","properties":{"id":"AT","name":"Austria","eu":true},"geometry":{"type":"MultiPolygon","coordinates":[[[[15.75,48.85],[16.29,48.73],[16.56,48.81],[16.88,48.71],[16.94,48.62],[16.95,48.54],[16.85,48.44],[16.98,48.17],[17.07,48.12],[17.16,48.01],[17.03,47.71],[16.8,47.69],[16.6,47.74],[16.42,47.67],[16.67,47.6],[16.65,47.45],[16.43,47.35],[16.48,47.11],[16.44,47.02],[16.3,46.99],[16.11,46.87],[16.0,46.84],[16.01,46.67],[15.79,46.71],[15.65,46.71],[15.5,46.63],[15.4,46.65],[15.07,46.65],[14.9,46.61],[14.77,46.5],[14.67,46.45],[14.57,46.37],[14.43,46.44],[13.71,46.52],[13.5,46.57],[12.73,46.63],[12.69,46.66],[12.48,46.68],[12.16,46.92],[12.14,47.0],[12.24,47.07],[12.14,47.08],[11.77,46.98],[11.63,47.01],[11.16,46.97],[10.99,46.77],[10.66,46.86],[10.47,46.85],[10.47,46.94],[10.39,46.98],[10.14,46.85],[9.91,46.93],[9.85,47.01],[9.61,47.06],[9.62,47.15],[9.53,47.27],[9.66,47.4],[9.56,47.54],[9.97,47.55],[10.0,47.48],[10.11,47.37],[10.2,47.37],[10.18,47.27],[10.43,47.4],[10.45,47.56],[10.89,47.54],[10.99,47.4],[11.02,47.4],[11.42,47.44],[11.41,47.5],[11.56,47.52],[11.63,47.59],[12.06,47.62],[12.17,47.62],[12.18,47.67],[12.2,47.71],[12.34,47.7],[12.45,47.67],[12.5,47.63],[12.58,47.63],[12.6,47.67],[12.7,47.68],[12.92,47.5],[13.05,47.52],[13.08,47.67],[12.93,47.73],[12.98,47.86],[12.88,47.96],[12.86,48.0],[12.75,48.11],[12.94,48.21],[13.18,48.29],[13.39,48.37],[13.44,48.55],[13.51,48.59],[13.73,48.51],[13.81,48.61],[13.8,48.71],[13.84,48.77],[14.11,48.59],[14.34,48.56],[14.49,48.63],[14.69,48.58],[14.77,48.71],[14.94,48.79],[15.02,49.0],[15.54,48.91],[15.75,48.85]]]]}},{"type":"Feature","properties":{"id":"CY","name":"Cyprus","eu":true},"geometry":{"type":"MultiPolygon","coordinates":[[[[32.27,35.07],[32.29,35.11],[32.41,35.04],[32.49,35.09],[32.55,35.17],[32.65,35.2],[32.83,35.14],[32.9,35.17],[32.94,35.27],[32.92,35.4],[32.99,35.37],[33.48,35.33],[33.65,35.36],[33.77,35.41],[33.85,35.41],[33.98,35.45],[34.13,35.51],[34.17,35.56],[34.29,35.57],[34.35,35.62],[34.54,35.68],[34.56,35.64],[34.46,35.61],[34.41,35.56],[34.28,35.48],[34.17,35.44],[34.06,35.33],[33.96,35.32],[33.9,35.26],[33.91,35.16],[34.05,35.02],[33.86,34.94],[33.78,34.98],[33.7,34.98],[33.64,34.93],[33.6,34.82],[33.26,34.71],[33.15,34.71],[33.01,34.65],[33.01,34.58],[32.94,34.57],[32.88,34.67],[32.71,34.64],[32.5,34.71],[32.41,34.77],[32.39,34.84],[32.32,34.9],[32.32,35.0],[32.27,35.07]]]]}},{"type":"Feature","properties":{"id":"CZ","name":"Czechia","eu":true},"geometry":{"type":"MultiPolygon","coordinates":[[[[14.62,50.86],[14.77,50.82],[14.82,50.87],[14.98,50.88],[15.06,51.01],[15.24,50.98],[15.38,50.8],[15.54,50.78],[15.8,50.74],[16.05,50.63],[16.11,50.66],[16.39,50.6],[16.39,50.54],[16.26,50.45],[16.58,50.14],[16.71,50.12],[16.86,50.2],[17.0,50.27],[16.89,50.41],[16.91,50.45],[17.43,50.25],[17.73,50.29],[17.74,50.21],[17.65,50.14],[17.85,49.99],[18.04,50.07],[18.33,49.93],[18.58,49.91],[18.62,49.75],[18.8,49.66],[18.85,49.52],[18.58,49.5],[18.4,49.4],[18.32,49.32],[18.17,49.26],[18.07,49.05],[17.65,48.85],[17.4,48.81],[17.17,48.85],[16.94,48.62],[16.88,48.71],[16.56,48.81],[16.29,48.73],[15.75,48.85],[15.54,48.91],[15.02,49.0],[14.94,48.79],[14.77,48.71],[14.69,48.58],[14.49,48.63],[14.34,48.56],[14.11,48.59],[13.84,48.77],[13.55,48.97],[13.42,48.98],[13.37,49.07],[13.17,49.17],[12.98,49.32],[12.79,49.36],[12.63,49.48],[12.64,49.52],[12.59,49.54],[12.4,49.76],[12.55,49.91],[12.26,50.06],[12.16,50.22],[12.1,50.32],[12.32,50.21],[12.58,50.41],[12.81,50.45],[12.95,50.4],[13.06,50.5],[13.5,50.63],[13.65,50.73],[13.83,50.73],[14.36,50.9],[14.28,51.0],[14.32,51.05],[14.49,51.04],[14.58,50.98],[14.62,50.86]]]]}},{"type":"Feature","properties":{"id":"BA","name":"Bosnia and Herzegovina","eu":false},"geometry":{"type":"MultiPolygon","coordinates":[[[[17.14,45.16],[17.68,45.12],[17.83,45.06],[18.02,45.13],[18.15,45.08],[18.25,45.12],[18.53,45.09],[18.75,45.02],[18.8,44.89],[18.86,44.86],[19.02,44.86],[19.35,44.89],[19.15,44.51],[19.14,44.37],[19.5,44.1],[19.56,43.99],[19.31,43.94],[19.49,43.73],[19.5,43.64],[19.22,43.53],[19.01,43.53],[18.98,43.51],[18.96,43.46],[19.06,43.31],[19.01,43.27],[18.89,43.34],[18.69,43.24],[18.65,43.05],[18.5,42.98],[18.47,42.8],[18.57,42.66],[18.53,42.63],[18.44,42.56],[18.22,42.62],[18.21,42.63],[17.83,42.89],[17.65,42.89],[17.58,42.92],[17.58,42.94],[17.66,43.02],[17.45,43.18],[17.29,43.34],[17.29,43.46],[17.16,43.51],[17.02,43.57],[16.54,43.97],[16.26,44.18],[16.21,44.21],[16.17,44.21],[16.2,44.34],[16.13,44.45],[16.13,44.5],[16.09,44.53],[15.94,44.71],[15.78,44.77],[15.76,44.89],[15.74,44.94],[15.84,45.22],[16.01,45.2],[16.3,45.0],[16.56,45.22],[16.8,45.2],[16.94,45.25],[17.14,45.16]]]]}},{"type":"Feature","properties":{"id":"BE","name":"Belgium","eu":true},"geometry":{"type":"MultiPolygon","coordinates":[[[[4.76,51.5],[4.86,51.43],[5.04,51.47],[5.1,51.43],[5.11,51.35],[5.24,51.26],[5.5,51.29],[5.57,51.22],[5.79,51.16],[5.8,51.06],[5.77,51.01],[5.67,50.87],[5.69,50.81],[5.68,50.76],[5.77,50.77],[5.89,50.76],[6.02,50.75],[6.21,50.63],[6.19,50.57],[6.19,50.52],[6.32,50.5],[6.41,50.32],[6.37,50.31],[6.19,50.22],[6.14,50.13],[6.02,50.18],[5.9,50.1],[5.75,49.85],[5.89,49.66],[5.82,49.55],[5.73,49.55],[5.47,49.5],[5.39,49.62],[5.15,49.72],[4.97,49.8],[4.87,49.81],[4.81,49.97],[4.85,50.13],[4.8,50.15],[4.66,49.99],[4.43,49.94],[4.23,49.96],[4.14,49.98],[4.21,50.08],[4.19,50.24],[4.03,50.36],[3.72,50.33],[3.67,50.4],[3.66,50.46],[3.62,50.49],[3.55,50.5],[3.31,50.52],[3.25,50.71],[3.18,50.76],[3.1,50.78],[3.02,50.77],[2.86,50.71],[2.65,50.83],[2.61,50.91],[2.58,51.0],[2.55,51.09],[2.75,51.16],[3.11,51.31],[3.37,51.37],[3.38,51.27],[3.55,51.29],[3.75,51.27],[3.86,51.21],[3.98,51.23],[4.23,51.35],[4.24,51.35],[4.24,51.37],[4.28,51.38],[4.39,51.37],[4.41,51.45],[4.49,51.47],[4.67,51.43],[4.76,51.5]]]]}},{"type":"Feature","properties":{"id":"BG","name":"Bulgaria","eu":true},"geometry":{"type":"MultiPolygon","coordinates":[[[[22.86,43.88],[23.0,43.81],[23.41,43.85],[23.63,43.79],[24.11,43.7],[24.32,43.7],[24.48,43.75],[24.65,43.72],[25.3,43.66],[25.54,43.64],[25.67,43.69],[25.89,43.8],[26.12,43.97],[26.36,44.04],[26.38,44.04],[26.95,44.14],[27.27,44.13],[27.39,44.02],[27.7,43.99],[27.92,43.99],[28.01,43.84],[28.22,43.77],[28.58,43.74],[28.58,43.51],[28.49,43.4],[28.19,43.41],[28.06,43.32],[27.94,43.19],[27.88,42.84],[27.86,42.72],[27.72,42.67],[27.68,42.63],[27.52,42.49],[27.7,42.4],[28.04,41.98],[27.96,41.98],[27.56,41.94],[27.47,41.98],[27.39,42.02],[27.28,42.09],[27.06,42.09],[26.98,42.02],[26.95,42.0],[26.87,41.98],[26.56,41.93],[26.53,41.84],[26.37,41.8],[26.36,41.71],[26.09,41.71],[26.11,41.67],[26.13,41.62],[26.17,41.54],[26.16,41.42],[26.11,41.36],[25.95,41.32],[25.91,41.31],[25.22,41.26],[25.18,41.31],[24.9,41.38],[24.78,41.36],[24.52,41.55],[24.06,41.52],[24.03,41.46],[23.62,41.38],[22.93,41.34],[22.97,41.52],[22.99,41.62],[22.99,41.67],[23.0,41.74],[22.88,41.98],[22.87,42.02],[22.51,42.16],[22.45,42.22],[22.36,42.31],[22.47,42.4],[22.53,42.44],[22.47,42.63],[22.46,42.65],[22.44,42.83],[22.52,42.87],[22.75,42.89],[23.01,43.19],[22.75,43.39],[22.67,43.4],[22.52,43.51],[22.37,43.79],[22.42,43.98],[22.54,44.05],[22.61,44.08],[22.68,44.22],[22.97,44.1],[23.02,44.04],[22.9,43.98],[22.86,43.88]]]]}},{"type":"Feature","properties":{"id":"CH","name":"Switzerland","eu":false},"geometry":{"type":"MultiPolygon","coordinates":[[[[8.67,47.68],[8.8,47.68],[8.84,47.7],[8.87,47.67],[9.18,47.66],[9.36,47.63],[9.5,47.55],[9.56,47.54],[9.66,47.4],[9.53,47.27],[9.48,47.05],[9.61,47.06],[9.85,47.01],[9.91,46.93],[10.14,46.85],[10.39,46.98],[10.47,46.94],[10.47,46.85],[10.4,46.68],[10.47,46.6],[10.45,46.53],[10.22,46.62],[10.11,46.58],[10.05,46.47],[10.13,46.4],[10.16,46.27],[10.09,46.24],[9.91,46.37],[9.57,46.31],[9.44,46.48],[9.32,46.5],[9.26,46.45],[9.25,46.23],[9.16,46.17],[9.03,46.02],[9.04,45.87],[8.91,45.83],[8.83,46.07],[8.71,46.1],[8.46,46.25],[8.46,46.42],[8.38,46.45],[8.11,46.26],[8.14,46.15],[7.88,45.93],[7.86,45.92],[7.58,45.97],[7.15,45.86],[7.04,45.92],[6.82,46.16],[6.82,46.43],[6.5,46.45],[6.22,46.31],[6.23,46.2],[5.96,46.13],[6.13,46.32],[6.14,46.37],[6.06,46.42],[6.14,46.56],[6.41,46.75],[6.46,46.85],[6.46,46.93],[6.86,47.17],[7.02,47.33],[6.94,47.38],[6.94,47.43],[7.13,47.5],[7.22,47.43],[7.38,47.43],[7.51,47.5],[7.56,47.56],[7.59,47.59],[7.63,47.56],[7.71,47.54],[7.89,47.59],[8.43,47.57],[8.61,47.67],[8.5,47.65],[8.42,47.67],[8.51,47.78],[8.61,47.8],[8.69,47.74],[8.66,47.69],[8.67,47.68]]]]}},{"type":"Feature","properties":{"id":"DE","name":"Germany","eu":true},"geometry":{"type":"MultiPolygon","coordinates":[[[[9.11,54.87],[9.29,54.81],[9.42,54.83],[9.42,54.82],[9.49,54.82],[9.93,54.78],[10.03,54.64],[9.97,54.51],[10.17,54.43],[10.17,54.35],[10.34,54.43],[10.71,54.31],[10.94,54.37],[11.07,54.32],[11.07,54.19],[10.78,54.07],[10.84,53.99],[10.9,53.96],[11.15,54.01],[11.33,53.95],[11.56,54.03],[11.65,54.13],[11.78,54.15],[12.0,54.17],[12.2,54.24],[12.29,54.27],[12.46,54.32],[12.54,54.44],[12.77,54.37],[12.96,54.43],[13.18,54.39],[13.21,54.55],[13.32,54.65],[13.46,54.49],[13.55,54.57],[13.64,54.56],[13.56,54.46],[13.66,54.35],[13.38,54.28],[13.32,54.19],[13.48,54.11],[13.82,54.16],[13.96,53.99],[14.1,54.0],[14.23,53.93],[14.21,53.87],[14.07,53.87],[13.91,53.84],[13.97,53.78],[14.27,53.7],[14.41,53.33],[14.43,53.26],[14.38,53.2],[14.34,53.06],[14.14,52.96],[14.16,52.9],[14.15,52.84],[14.44,52.68],[14.57,52.62],[14.63,52.52],[14.53,52.4],[14.6,52.27],[14.7,52.23],[14.76,52.07],[14.72,52.0],[14.61,51.83],[14.74,51.66],[14.73,51.58],[14.77,51.52],[14.93,51.47],[14.97,51.36],[15.02,51.28],[15.0,51.14],[14.82,50.87],[14.77,50.82],[14.62,50.86],[14.58,50.98],[14.49,51.04],[14.32,51.05],[14.28,51.0],[14.36,50.9],[13.83,50.73],[13.65,50.73],[13.5,50.63],[13.06,50.5],[12.95,50.4],[12.81,50.45],[12.58,50.41],[12.32,50.21],[12.1,50.32],[12.16,50.22],[12.26,50.06],[12.55,49.91],[12.4,49.76],[12.59,49.54],[12.64,49.52],[12.63,49.48],[12.79,49.36],[12.98,49.32],[13.17,49.17],[13.37,49.07],[13.42,48.98],[13.55,48.97],[13.84,48.77],[13.8,48.71],[13.81,48.61],[13.73,48.51],[13.51,48.59],[13.44,48.55],[13.39,48.37],[13.18,48.29],[12.94,48.21],[12.75,48.11],[12.86,48.0],[12.88,47.96],[12.98,47.86],[12.93,47.73],[13.08,47.67],[13.05,47.52],[12.92,47.5],[12.7,47.68],[12.6,47.67],[12.58,47.63],[12.5,47.63],[12.45,47.67],[12.34,47.7],[12.2,47.71],[12.18,47.67],[12.17,47.62],[12.06,47.62],[11.63,47.59],[11.56,47.52],[11.41,47.5],[11.42,47.44],[11.02,47.4],[10.99,47.4],[10.89,47.54],[10.45,47.56],[10.43,47.4],[10.18,47.27],[10.2,47.37],[10.11,47.37],[10.0,47.48],[9.97,47.55],[9.56,47.54],[9.5,47.55],[9.36,47.63],[9.18,47.66],[8.87,47.67],[8.84,47.7],[8.8,47.68],[8.67,47.68],[8.66,47.69],[8.69,47.74],[8.61,47.8],[8.51,47.78],[8.42,47.67],[8.5,47.65],[8.61,47.67],[8.43,47.57],[7.89,47.59],[7.71,47.54],[7.63,47.56],[7.59,47.59],[7.52,47.67],[7.55,47.74],[7.6,47.97],[7.58,48.12],[7.58,48.12],[7.68,48.26],[7.82,48.61],[7.96,48.72],[8.23,48.97],[8.07,49.0],[7.91,49.05],[7.64,49.05],[7.48,49.16],[7.37,49.16],[7.25,49.12],[7.1,49.16],[6.93,49.21],[6.78,49.16],[6.72,49.22],[6.56,49.42],[6.37,49.46],[6.37,49.54],[6.48,49.72],[6.47,49.82],[6.37,49.85],[6.18,49.96],[6.14,50.13],[6.19,50.22],[6.37,50.31],[6.41,50.32],[6.32,50.5],[6.19,50.52],[6.19,50.57],[6.21,50.63],[6.02,50.75],[6.09,50.91],[5.88,51.03],[6.17,51.18],[6.07,51.24],[6.22,51.36],[6.2,51.52],[5.95,51.75],[6.01,51.83],[6.17,51.9],[6.41,51.83],[6.78,51.94],[6.73,52.05],[6.76,52.12],[7.07,52.24],[7.01,52.44],[6.7,52.49],[6.71,52.63],[7.01,52.64],[7.09,52.84],[7.2,52.98],[7.2,53.11],[7.22,53.2],[7.21,53.24],[7.26,53.33],[7.04,53.34],[7.0,53.36],[7.11,53.58],[7.27,53.7],[7.55,53.68],[7.81,53.71],[8.0,53.7],[8.09,53.64],[8.15,53.54],[8.06,53.51],[8.2,53.41],[8.3,53.45],[8.24,53.54],[8.29,53.6],[8.55,53.53],[8.52,53.61],[8.54,53.79],[8.69,53.89],[8.8,53.84],[9.02,53.83],[9.27,53.87],[9.2,53.88],[9.03,53.88],[8.83,54.02],[8.96,54.07],[8.83,54.16],[8.84,54.27],[8.69,54.33],[8.88,54.44],[8.86,54.56],[8.65,54.81],[8.64,54.91],[9.03,54.88],[9.11,54.87]]],[[[11.27,54.41],[11.13,54.41],[11.03,54.45],[11.03,54.51],[11.06,54.53],[11.21,54.51],[11.27,54.41]]],[[[8.6,54.74],[8.57,54.68],[8.49,54.68],[8.39,54.71],[8.43,54.75],[8.6,54.74]]],[[[6.93,53.68],[6.9,53.59],[6.84,53.62],[6.81,53.68],[6.85,53.7],[6.93,53.68]]],[[[8.38,54.87],[8.27,54.87],[8.33,54.98],[8.38,54.96],[8.38,54.87]]],[[[8.7,54.56],[8.68,54.48],[8.55,54.5],[8.56,54.54],[8.7,54.56]]],[[[8.38,54.65],[8.33,54.61],[8.26,54.67],[8.36,54.74],[8.38,54.65]]],[[[8.53,54.0],[8.46,53.91],[8.38,53.93],[8.47,54.02],[8.53,54.0]]],[[[6.75,53.64],[6.79,53.54],[6.66,53.56],[6.64,53.59],[6.75,53.64]]],[[[7.94,54.21],[7.92,54.12],[7.8,54.21],[7.89,54.24],[7.94,54.21]]]]}},{"type":"Feature","properties":{"id":"DK","name":"Denmark","eu":true},"geometry":{"type":"MultiPolygon","coordinates":[[[[10.53,57.28],[10.3,56.95],[10.28,56.74],[10.19,56.68],[10.31,56.68],[10.46,56.53],[10.82,56.51],[10.91,56.37],[10.72,56.18],[10.6,56.2],[10.51,56.14],[10.43,56.27],[10.28,56.19],[10.22,55.89],[9.97,55.85],[9.99,55.71],[9.67,55.71],[9.78,55.6],[9.61,55.41],[9.69,55.26],[9.64,55.18],[9.64,55.18],[9.63,55.18],[9.63,55.18],[9.56,55.18],[9.56,55.04],[9.81,55.06],[9.96,55.0],[10.03,54.89],[9.72,54.85],[9.6,54.89],[9.58,54.89],[9.42,54.83],[9.29,54.81],[9.11,54.87],[9.03,54.88],[8.64,54.91],[8.65,55.37],[8.52,55.45],[8.43,55.37],[8.29,55.57],[8.22,55.52],[8.1,55.56],[8.2,55.83],[8.34,55.94],[8.13,56.17],[8.2,56.36],[8.14,56.52],[8.2,56.66],[8.67,56.48],[8.73,56.51],[8.76,56.65],[9.01,56.82],[9.13,56.72],[9.13,56.62],[9.32,56.67],[9.21,56.8],[9.19,56.97],[9.12,57.0],[8.95,56.97],[8.83,56.77],[8.71,56.69],[8.38,56.7],[8.28,56.82],[8.58,57.09],[9.39,57.17],[9.95,57.57],[10.46,57.68],[10.53,57.28]]],[[[12.58,55.81],[12.58,55.72],[12.66,55.59],[12.57,55.57],[12.5,55.64],[12.36,55.59],[12.22,55.52],[12.22,55.43],[12.42,55.31],[12.16,55.19],[12.16,55.1],[12.26,55.07],[12.27,55.0],[12.41,55.01],[12.45,54.96],[12.23,54.89],[12.03,54.73],[11.95,54.6],[11.47,54.62],[11.02,54.78],[11.03,54.88],[11.11,54.94],[11.28,54.94],[11.54,54.84],[11.94,54.96],[11.68,55.17],[11.27,55.23],[11.06,55.71],[11.29,55.76],[11.65,55.95],[11.72,55.92],[11.79,55.66],[11.88,55.74],[11.93,55.85],[11.9,55.98],[12.28,56.11],[12.57,56.05],[12.58,55.81]],[[11.98,55.73],[12.02,55.69],[12.08,55.7],[12.09,55.78],[11.98,55.73]]],[[[10.41,55.59],[10.55,55.46],[10.63,55.57],[10.68,55.55],[10.8,55.18],[10.64,54.95],[10.41,55.04],[10.13,55.06],[10.12,55.18],[10.05,55.18],[9.89,55.25],[9.76,55.53],[10.41,55.59]]],[[[15.15,55.08],[15.08,54.99],[14.96,55.0],[14.75,55.06],[14.68,55.1],[14.71,55.22],[14.77,55.3],[14.83,55.25],[15.15,55.13],[15.15,55.08]]],[[[10.74,54.75],[10.69,54.73],[10.65,54.84],[10.7,54.94],[10.89,55.1],[10.91,55.03],[10.74,54.75]]],[[[11.1,57.26],[11.04,57.2],[10.87,57.25],[10.92,57.3],[11.08,57.32],[11.1,57.26]]],[[[10.64,55.79],[10.54,55.78],[10.53,55.84],[10.61,55.9],[10.68,55.9],[10.64,55.79]]],[[[8.57,55.08],[8.52,55.06],[8.46,55.11],[8.49,55.2],[8.6,55.2],[8.55,55.14],[8.57,55.08]]],[[[8.59,56.6],[8.52,56.59],[8.44,56.67],[8.59,56.69],[8.59,56.6]]],[[[10.47,54.89],[10.41,54.81],[10.3,54.9],[10.33,54.92],[10.47,54.89]]],[[[12.8,55.67],[12.79,55.56],[12.7,55.6],[12.74,55.69],[12.8,55.67]]],[[[11.59,56.74],[11.6,56.66],[11.51,56.67],[11.45,56.73],[11.59,56.74]]],[[[11.77,56.24],[11.78,56.15],[11.68,56.16],[11.64,56.2],[11.77,56.24]]],[[[11.22,57.27],[11.16,57.24],[11.13,57.31],[11.15,57.35],[11.23,57.35],[11.22,57.27]]],[[[10.6,55.95],[10.51,55.91],[10.49,55.98],[10.58,56.04],[10.6,55.95]]]]}},{"type":"Feature","properties":{"id":"EE","name":"Estonia","eu":true},"geometry":{"type":"MultiPolygon","coordinates":[[[[25.73,59.64],[25.83,59.56],[25.89,59.62],[26.76,59.5],[26.96,59.44],[27.83,59.4],[28.04,59.47],[28.18,59.4],[28.16,59.33],[27.93,59.25],[27.71,58.97],[27.36,58.79],[27.52,58.42],[27.53,58.19],[27.74,57.88],[27.54,57.8],[27.4,57.66],[27.35,57.52],[26.91,57.62],[26.53,57.53],[26.29,57.6],[26.03,57.84],[25.89,57.85],[25.36,58.05],[25.05,58.04],[24.83,57.97],[24.35,57.88],[24.51,58.33],[24.35,58.36],[24.04,58.28],[23.8,58.35],[23.55,58.61],[23.6,58.77],[23.43,58.75],[23.52,59.18],[23.73,59.24],[24.08,59.29],[24.06,59.38],[24.22,59.36],[24.43,59.47],[24.78,59.46],[24.83,59.56],[25.12,59.48],[25.42,59.5],[25.56,59.6],[25.68,59.58],[25.73,59.64]]],[[[23.36,58.62],[23.38,58.52],[23.17,58.55],[23.14,58.52],[23.25,58.47],[23.24,58.43],[23.06,58.39],[22.7,58.22],[22.31,58.2],[22.18,57.98],[22.04,57.93],[22.02,58.0],[22.18,58.13],[21.88,58.27],[21.98,58.36],[21.92,58.49],[22.08,58.44],[22.2,58.52],[22.3,58.49],[22.31,58.52],[22.55,58.62],[22.98,58.6],[23.25,58.67],[23.36,58.62]]],[[[22.62,59.08],[22.98,58.92],[23.03,58.92],[23.06,58.84],[22.98,58.84],[22.56,58.69],[22.48,58.72],[22.4,58.87],[22.33,58.91],[22.62,59.08]]],[[[23.15,59.05],[23.27,59.02],[23.35,59.04],[23.36,58.99],[23.16,58.97],[23.1,59.03],[23.15,59.05]]],[[[24.03,58.11],[23.95,58.07],[23.93,58.11],[23.95,58.17],[24.05,58.17],[24.03,58.11]]],[[[24.57,59.55],[24.49,59.53],[24.44,59.57],[24.5,59.64],[24.57,59.55]]]]}},{"type":"Feature","properties":{"id":"EL","name":"Greece","eu":true},"geometry":{"type":"MultiPolygon","coordinates":[[[[26.62,41.37],[26.34,41.24],[26.35,40.96],[26.03,40.73],[25.95,40.83],[25.63,40.86],[25.17,40.95],[25.14,40.99],[24.81,40.86],[24.64,40.87],[24.49,40.95],[24.12,40.73],[23.87,40.78],[23.77,40.76],[23.72,40.68],[23.76,40.63],[23.78,40.6],[23.86,40.53],[23.86,40.45],[24.01,40.39],[24.19,40.33],[24.38,40.15],[24.31,40.13],[24.16,40.27],[24.01,40.31],[23.86,40.38],[23.72,40.28],[23.98,40.1],[24.0,40.02],[23.95,39.96],[23.84,40.0],[23.65,40.22],[23.43,40.26],[23.28,40.23],[23.0,40.35],[22.88,40.47],[22.92,40.62],[22.68,40.53],[22.66,40.49],[22.61,40.45],[22.64,40.35],[22.56,40.14],[22.66,39.97],[22.85,39.79],[22.92,39.6],[23.12,39.46],[23.33,39.2],[23.22,39.14],[23.1,39.29],[22.9,39.3],[22.84,39.21],[23.02,39.0],[22.95,38.93],[22.77,38.88],[22.62,38.9],[22.59,38.86],[23.03,38.74],[23.13,38.66],[23.29,38.64],[23.33,38.51],[23.5,38.56],[23.12,38.87],[23.2,38.99],[23.32,38.99],[23.6,38.79],[24.08,38.64],[24.27,38.27],[24.49,38.14],[24.52,38.05],[24.44,38.0],[24.29,38.03],[23.98,38.37],[23.66,38.35],[23.69,38.34],[24.04,38.19],[24.05,37.71],[23.97,37.67],[23.74,37.85],[23.67,37.94],[23.46,37.92],[23.49,37.98],[23.57,37.99],[23.6,38.02],[23.18,37.95],[23.07,37.89],[23.14,37.81],[23.12,37.73],[23.2,37.6],[23.31,37.56],[23.32,37.62],[23.4,37.63],[23.39,37.53],[23.47,37.46],[23.42,37.41],[23.13,37.33],[23.08,37.44],[22.75,37.57],[22.73,37.49],[22.9,37.12],[22.98,37.05],[23.06,36.56],[22.69,36.76],[22.57,36.7],[22.44,36.51],[22.29,36.79],[22.11,36.96],[21.97,36.94],[21.86,36.8],[21.71,36.87],[21.61,37.1],[21.68,37.38],[21.57,37.53],[21.2,37.82],[21.13,37.91],[21.35,38.1],[21.39,38.2],[21.62,38.16],[21.87,38.33],[22.37,38.14],[22.44,38.13],[22.87,37.95],[22.95,37.97],[22.93,38.06],[23.12,38.06],[23.21,38.13],[23.13,38.17],[22.82,38.23],[22.61,38.36],[22.57,38.31],[22.44,38.43],[22.36,38.36],[22.19,38.34],[21.99,38.4],[21.85,38.37],[21.17,38.33],[21.05,38.55],[20.76,38.86],[20.87,38.93],[21.08,38.88],[21.13,38.96],[21.11,39.05],[20.84,39.05],[20.73,39.0],[20.48,39.27],[20.46,39.27],[20.3,39.32],[20.16,39.62],[20.01,39.69],[20.23,39.66],[20.3,39.73],[20.3,39.81],[20.39,39.79],[20.36,39.98],[20.45,40.06],[20.61,40.08],[20.78,40.35],[21.06,40.62],[20.98,40.86],[21.79,40.93],[21.93,41.1],[22.22,41.17],[22.33,41.12],[22.39,41.13],[22.72,41.16],[22.78,41.31],[22.88,41.34],[22.93,41.34],[23.62,41.38],[24.03,41.46],[24.06,41.52],[24.52,41.55],[24.78,41.36],[24.9,41.38],[25.18,41.31],[25.22,41.26],[25.91,41.31],[25.95,41.32],[26.11,41.36],[26.16,41.42],[26.17,41.54],[26.13,41.62],[26.11,41.67],[26.09,41.71],[26.36,41.71],[26.44,41.67],[26.54,41.62],[26.58,41.6],[26.62,41.37]]],[[[23.74,35.66],[23.84,35.54],[24.16,35.57],[24.19,35.47],[24.32,35.35],[24.93,35.41],[25.17,35.35],[25.49,35.3],[25.69,35.32],[25.79,35.12],[26.22,35.24],[26.27,35.17],[26.11,35.01],[25.55,34.99],[25.17,34.95],[24.79,34.94],[24.72,35.09],[24.29,35.18],[23.61,35.24],[23.53,35.34],[23.58,35.52],[23.7,35.52],[23.74,35.66]]],[[[26.41,39.27],[26.59,39.04],[26.52,38.98],[26.17,39.03],[26.17,39.15],[26.04,39.1],[25.86,39.18],[25.9,39.27],[26.17,39.33],[26.19,39.37],[26.34,39.38],[26.42,39.33],[26.41,39.27]]],[[[27.89,35.96],[27.75,35.92],[27.73,36.15],[27.89,36.33],[28.15,36.43],[28.23,36.4],[28.07,36.08],[27.89,35.96]]],[[[26.0,38.61],[26.12,38.54],[26.17,38.55],[26.14,38.42],[26.16,38.31],[26.11,38.27],[26.1,38.21],[26.01,38.15],[25.86,38.24],[25.99,38.34],[25.99,38.39],[25.83,38.54],[25.85,38.58],[26.0,38.61]]],[[[20.63,38.33],[20.63,38.26],[20.67,38.28],[20.81,38.11],[20.79,38.07],[20.7,38.07],[20.61,38.12],[20.56,38.09],[20.44,38.16],[20.34,38.19],[20.4,38.33],[20.49,38.31],[20.53,38.34],[20.54,38.47],[20.58,38.46],[20.63,38.33]]],[[[20.0,39.45],[19.98,39.42],[19.89,39.45],[19.64,39.76],[19.7,39.8],[19.92,39.79],[19.87,39.69],[19.94,39.5],[20.0,39.45]]],[[[25.55,36.96],[25.45,36.92],[25.39,36.98],[25.36,37.07],[25.38,37.11],[25.53,37.2],[25.6,37.12],[25.55,36.96]]],[[[25.17,39.99],[25.3,39.96],[25.4,39.99],[25.42,39.96],[25.34,39.81],[25.23,39.89],[25.17,39.8],[25.05,39.91],[25.07,39.97],[25.17,39.99]]],[[[24.77,40.63],[24.62,40.56],[24.62,40.6],[24.54,40.63],[24.52,40.68],[24.57,40.76],[24.66,40.79],[24.77,40.71],[24.77,40.63]]],[[[23.68,39.97],[23.67,39.92],[23.6,39.92],[23.46,39.97],[23.36,39.96],[23.38,40.0],[23.31,40.1],[23.33,40.17],[23.4,40.14],[23.49,40.03],[23.68,39.97]]],[[[26.98,37.71],[26.83,37.65],[26.61,37.72],[26.6,37.73],[26.77,37.81],[26.98,37.75],[26.98,37.71]]],[[[20.75,38.63],[20.62,38.6],[20.56,38.63],[20.56,38.68],[20.6,38.78],[20.65,38.83],[20.72,38.85],[20.75,38.63]]],[[[20.9,37.74],[20.83,37.66],[20.63,37.82],[20.64,37.88],[20.69,37.92],[20.75,37.86],[20.87,37.82],[20.9,37.74]]],[[[24.98,37.75],[24.94,37.72],[24.81,37.82],[24.71,37.89],[24.72,37.97],[24.94,37.89],[24.97,37.82],[24.98,37.75]]],[[[27.19,35.46],[27.15,35.42],[27.08,35.44],[27.12,35.48],[27.11,35.55],[27.06,35.6],[27.12,35.65],[27.16,35.73],[27.17,35.81],[27.21,35.81],[27.22,35.73],[27.15,35.61],[27.22,35.54],[27.19,35.46]]],[[[23.05,36.22],[23.05,36.13],[22.94,36.16],[22.9,36.23],[22.89,36.32],[22.95,36.38],[23.0,36.31],[23.09,36.25],[23.05,36.22]]],[[[26.11,37.55],[26.06,37.51],[25.96,37.52],[26.06,37.63],[26.2,37.63],[26.31,37.69],[26.35,37.66],[26.22,37.57],[26.11,37.55]]],[[[27.17,36.81],[27.1,36.75],[27.01,36.78],[27.07,36.85],[27.28,36.92],[27.36,36.86],[27.17,36.81]]],[[[24.69,38.79],[24.63,38.74],[24.53,38.79],[24.56,38.83],[24.43,38.88],[24.49,38.98],[24.58,38.93],[24.57,38.87],[24.69,38.79]]],[[[26.08,36.92],[25.99,36.85],[25.94,36.87],[25.91,36.81],[25.81,36.76],[25.76,36.79],[25.89,36.9],[25.91,36.89],[26.04,36.97],[26.08,36.92]]],[[[25.7,40.42],[25.56,40.39],[25.44,40.47],[25.56,40.51],[25.66,40.5],[25.7,40.42]]],[[[25.27,37.06],[25.17,36.98],[25.04,37.0],[25.17,37.13],[25.25,37.12],[25.27,37.06]]],[[[24.54,36.7],[24.47,36.66],[24.32,36.66],[24.34,36.74],[24.41,36.77],[24.52,36.76],[24.54,36.7]]],[[[25.23,37.54],[25.17,37.53],[25.0,37.66],[25.03,37.68],[25.23,37.62],[25.23,37.54]]],[[[26.48,36.59],[26.39,36.55],[26.38,36.5],[26.28,36.52],[26.25,36.59],[26.38,36.58],[26.37,36.66],[26.43,36.66],[26.48,36.59]]],[[[24.04,39.1],[23.99,39.07],[23.92,39.12],[23.94,39.18],[23.89,39.21],[23.95,39.28],[23.99,39.19],[24.04,39.17],[24.04,39.1]]],[[[24.42,37.66],[24.29,37.52],[24.26,37.58],[24.29,37.66],[24.35,37.69],[24.42,37.66]]],[[[25.41,36.71],[25.36,36.64],[25.25,36.73],[25.27,36.79],[25.41,36.71]]],[[[20.78,38.31],[20.7,38.31],[20.62,38.46],[20.71,38.44],[20.69,38.41],[20.78,38.31]]],[[[27.04,36.96],[26.94,36.92],[26.9,36.97],[26.99,37.03],[27.06,37.0],[27.04,36.96]]],[[[23.78,39.13],[23.73,39.07],[23.66,39.09],[23.63,39.15],[23.65,39.17],[23.78,39.13]]],[[[23.53,37.69],[23.48,37.67],[23.41,37.76],[23.54,37.77],[23.53,37.69]]],[[[25.44,37.45],[25.4,37.41],[25.3,37.44],[25.31,37.49],[25.41,37.5],[25.44,37.45]]],[[[24.43,37.34],[24.38,37.33],[24.37,37.42],[24.41,37.46],[24.47,37.41],[24.43,37.34]]],[[[24.95,37.39],[24.88,37.37],[24.87,37.43],[24.88,37.51],[24.94,37.48],[24.95,37.39]]],[[[25.28,37.37],[25.2,37.32],[25.19,37.42],[25.26,37.46],[25.28,37.37]]],[[[24.55,37.14],[24.49,37.11],[24.43,37.14],[24.47,37.21],[24.53,37.2],[24.55,37.14]]],[[[23.5,36.94],[23.54,36.83],[23.45,36.85],[23.41,36.94],[23.5,36.94]]],[[[24.13,39.36],[24.11,39.29],[24.0,39.31],[24.09,39.4],[24.13,39.36]]],[[[24.01,37.45],[23.91,37.43],[23.85,37.5],[23.96,37.52],[24.01,37.45]]],[[[25.18,36.68],[25.12,36.62],[25.06,36.66],[25.07,36.71],[25.17,36.73],[25.18,36.68]]],[[[25.64,38.6],[25.62,38.52],[25.54,38.54],[25.53,38.59],[25.59,38.63],[25.64,38.6]]],[[[25.5,36.35],[25.44,36.32],[25.4,36.35],[25.45,36.45],[25.5,36.41],[25.5,36.35]]],[[[23.11,39.18],[23.14,39.07],[23.04,39.09],[23.06,39.19],[23.11,39.18]]],[[[26.78,37.24],[26.68,37.22],[26.72,37.33],[26.81,37.3],[26.78,37.24]]],[[[23.21,37.27],[23.17,37.21],[23.1,37.21],[23.08,37.26],[23.12,37.3],[23.21,37.27]]],[[[27.9,36.59],[27.8,36.56],[27.75,36.65],[27.81,36.66],[27.9,36.59]]],[[[23.52,37.38],[23.54,37.29],[23.41,37.33],[23.44,37.38],[23.52,37.38]]],[[[27.0,36.71],[26.96,36.67],[26.9,36.71],[26.91,36.78],[26.97,36.79],[27.0,36.71]]],[[[25.08,39.54],[24.98,39.44],[24.96,39.5],[25.01,39.58],[25.08,39.54]]],[[[20.95,38.59],[20.89,38.52],[20.85,38.6],[20.89,38.65],[20.95,38.65],[20.95,38.59]]],[[[23.02,38.87],[22.96,38.82],[22.86,38.86],[22.93,38.91],[23.02,38.87]]],[[[24.97,36.57],[24.89,36.56],[24.86,36.62],[24.94,36.68],[24.97,36.57]]],[[[26.98,35.41],[26.88,35.33],[26.82,35.35],[26.9,35.44],[26.98,35.41]]],[[[25.84,36.38],[25.79,36.32],[25.69,36.36],[25.76,36.43],[25.84,36.38]]],[[[23.53,39.2],[23.49,39.1],[23.42,39.14],[23.43,39.21],[23.53,39.2]]],[[[27.05,37.45],[26.97,37.42],[26.89,37.49],[26.99,37.51],[27.05,37.45]]],[[[27.4,36.45],[27.31,36.4],[27.27,36.43],[27.28,36.47],[27.37,36.5],[27.4,36.45]]],[[[27.23,36.57],[27.2,36.54],[27.1,36.57],[27.11,36.62],[27.2,36.63],[27.23,36.57]]],[[[24.16,34.86],[24.11,34.79],[24.0,34.87],[24.05,34.9],[24.16,34.86]]],[[[23.99,36.81],[23.89,36.79],[23.83,36.85],[23.92,36.88],[23.99,36.81]]],[[[24.78,36.95],[24.71,36.91],[24.65,36.98],[24.7,37.04],[24.78,36.95]]],[[[24.66,36.78],[24.66,36.74],[24.51,36.8],[24.56,36.86],[24.66,36.78]]]]}},{"type":"Feature","properties":{"id":"ES","name":"Spain","eu":true},"geometry":{"type":"MultiPolygon","coordinates":[[[[-7.26,43.58],[-7.03,43.54],[-6.29,43.57],[-5.84,43.64],[-5.66,43.55],[-5.39,43.55],[-5.18,43.47],[-4.51,43.39],[-3.86,43.48],[-3.79,43.44],[-3.59,43.5],[-3.15,43.35],[-2.76,43.44],[-2.58,43.38],[-2.51,43.36],[-2.41,43.32],[-2.17,43.29],[-2.09,43.3],[-1.79,43.35],[-1.73,43.3],[-1.39,43.26],[-1.39,43.19],[-1.42,43.13],[-1.47,43.08],[-1.44,43.05],[-1.39,43.04],[-1.31,43.08],[-1.13,43.03],[-0.72,42.92],[-0.69,42.9],[-0.57,42.82],[-0.31,42.85],[-0.01,42.7],[0.26,42.7],[0.48,42.7],[0.66,42.69],[0.67,42.8],[0.71,42.85],[0.86,42.83],[0.91,42.81],[1.32,42.71],[1.41,42.63],[1.44,42.6],[1.47,42.44],[1.73,42.5],[1.73,42.49],[1.92,42.45],[1.99,42.4],[2.04,42.36],[2.14,42.4],[2.23,42.43],[2.3,42.41],[2.35,42.4],[2.55,42.34],[2.71,42.4],[2.88,42.46],[3.17,42.44],[3.2,42.4],[3.28,42.29],[3.16,42.22],[3.12,42.2],[3.19,41.98],[3.21,41.92],[2.81,41.67],[2.78,41.65],[2.71,41.62],[2.3,41.47],[2.08,41.29],[1.65,41.2],[0.98,41.03],[0.91,40.97],[0.73,40.81],[0.84,40.68],[0.61,40.61],[0.52,40.52],[0.26,40.24],[0.0,39.95],[-0.19,39.72],[-0.33,39.41],[-0.2,39.08],[-0.04,38.89],[0.14,38.83],[0.2,38.76],[-0.05,38.59],[-0.49,38.32],[-0.76,37.85],[-0.84,37.72],[-0.74,37.66],[-0.76,37.6],[-1.13,37.58],[-1.32,37.56],[-1.63,37.38],[-1.82,37.19],[-1.91,36.95],[-2.09,36.78],[-2.14,36.74],[-2.36,36.83],[-2.51,36.82],[-2.58,36.78],[-2.75,36.7],[-3.13,36.75],[-3.44,36.7],[-3.78,36.74],[-4.4,36.71],[-4.66,36.51],[-4.95,36.49],[-5.16,36.41],[-5.25,36.31],[-5.34,36.15],[-5.34,36.15],[-5.35,36.15],[-5.6,36.02],[-6.03,36.19],[-6.21,36.4],[-6.24,36.57],[-6.34,36.63],[-6.39,36.64],[-6.43,36.73],[-6.35,36.8],[-6.54,36.99],[-7.0,37.19],[-7.05,37.21],[-7.14,37.21],[-7.33,37.19],[-7.4,37.17],[-7.51,37.53],[-7.24,37.96],[-7.01,38.04],[-6.93,38.21],[-7.11,38.19],[-7.31,38.46],[-7.2,38.75],[-7.07,38.85],[-6.97,39.03],[-7.13,39.12],[-7.23,39.28],[-7.31,39.46],[-7.54,39.66],[-7.02,39.69],[-6.88,39.98],[-7.01,40.16],[-6.95,40.26],[-6.87,40.27],[-6.8,40.36],[-6.81,40.83],[-6.93,41.03],[-6.81,41.06],[-6.69,41.21],[-6.48,41.29],[-6.44,41.3],[-6.42,41.34],[-6.34,41.38],[-6.21,41.56],[-6.31,41.66],[-6.52,41.71],[-6.6,41.93],[-6.99,41.97],[-7.16,41.97],[-7.2,41.88],[-7.42,41.83],[-7.73,41.9],[-8.05,41.82],[-8.17,41.82],[-8.2,41.93],[-8.1,42.04],[-8.2,42.15],[-8.61,42.05],[-8.86,41.87],[-8.87,42.09],[-8.79,42.23],[-8.83,42.28],[-8.79,42.37],[-8.84,42.45],[-8.73,42.69],[-9.0,42.57],[-9.01,42.7],[-8.99,42.76],[-9.15,42.8],[-9.14,42.9],[-9.25,42.99],[-9.14,43.17],[-8.86,43.31],[-8.28,43.37],[-8.3,43.5],[-8.24,43.57],[-7.91,43.74],[-7.7,43.74],[-7.46,43.72],[-7.26,43.58]]],[[[3.07,39.92],[3.12,39.87],[3.17,39.9],[3.21,39.88],[3.14,39.77],[3.25,39.73],[3.35,39.79],[3.46,39.74],[3.46,39.66],[3.4,39.64],[3.4,39.58],[3.3,39.5],[3.23,39.36],[3.05,39.27],[2.96,39.36],[2.79,39.36],[2.72,39.48],[2.75,39.5],[2.63,39.57],[2.54,39.52],[2.52,39.46],[2.44,39.52],[2.33,39.58],[2.59,39.72],[2.67,39.79],[2.78,39.86],[2.84,39.86],[2.95,39.92],[3.07,39.92]]],[[[4.26,39.96],[4.31,39.87],[4.27,39.81],[4.21,39.83],[4.02,39.92],[3.96,39.94],[3.82,39.93],[3.83,39.99],[3.79,40.02],[3.82,40.05],[3.93,40.06],[4.17,40.06],[4.26,39.96]]],[[[1.44,38.92],[1.4,38.84],[1.35,38.87],[1.25,38.86],[1.2,38.96],[1.3,38.97],[1.29,39.03],[1.36,39.07],[1.54,39.11],[1.59,39.09],[1.61,39.03],[1.52,38.95],[1.44,38.92]]],[[[1.44,38.76],[1.52,38.69],[1.58,38.73],[1.62,38.65],[1.53,38.62],[1.47,38.69],[1.38,38.63],[1.38,38.69],[1.44,38.76]]],[[[-5.34,35.88],[-5.34,35.87],[-5.38,35.91],[-5.38,35.92],[-5.36,35.92],[-5.35,35.91],[-5.34,35.9],[-5.34,35.9],[-5.34,35.89],[-5.34,35.89],[-5.34,35.88],[-5.34,35.88]]],[[[-2.95,35.32],[-2.93,35.27],[-2.97,35.29],[-2.95,35.32]]]]}},{"type":"Feature","properties":{"id":"FI","name":"Finland","eu":true},"geometry":{"type":"MultiPolygon","coordinates":[[[[27.94,70.08],[28.38,69.83],[28.77,69.76],[29.12,69.69],[29.31,69.49],[28.89,69.25],[28.82,69.13],[28.93,69.05],[28.62,68.93],[28.73,68.83],[28.49,68.53],[28.6,68.29],[29.31,68.06],[29.96,67.65],[29.85,67.48],[29.09,66.95],[29.13,66.81],[29.57,66.43],[29.92,66.12],[30.12,65.72],[29.76,65.64],[29.84,65.56],[29.75,65.5],[29.67,65.27],[29.82,65.16],[29.66,65.04],[29.66,64.9],[30.03,64.73],[30.08,64.43],[30.5,64.17],[30.44,64.0],[30.31,63.88],[29.97,63.76],[30.38,63.53],[30.47,63.48],[30.73,63.39],[31.19,63.23],[31.54,62.91],[31.18,62.48],[30.14,61.85],[29.17,61.24],[28.84,61.13],[28.75,61.06],[28.66,60.96],[28.5,60.94],[27.99,60.67],[27.84,60.57],[27.8,60.55],[27.4,60.45],[27.11,60.52],[26.62,60.42],[26.45,60.49],[26.39,60.37],[26.09,60.4],[26.09,60.3],[25.94,60.24],[25.23,60.24],[24.47,60.0],[24.08,60.01],[23.86,59.92],[23.35,59.9],[23.16,59.84],[22.89,59.94],[23.03,60.1],[22.89,60.03],[22.45,60.01],[22.39,60.07],[22.43,60.23],[22.21,60.19],[22.16,60.29],[22.22,60.36],[22.14,60.42],[21.88,60.3],[21.74,60.55],[21.58,60.5],[21.29,60.52],[21.26,60.58],[21.36,60.71],[21.25,60.89],[21.42,61.05],[21.53,61.45],[21.48,61.61],[21.56,61.65],[21.34,61.96],[21.35,62.31],[21.19,62.47],[21.07,62.72],[21.17,62.96],[21.33,62.91],[21.46,63.0],[21.45,63.13],[21.54,63.09],[21.57,63.21],[21.74,63.28],[22.04,63.37],[22.33,63.31],[22.29,63.39],[22.26,63.45],[22.28,63.48],[22.33,63.56],[22.61,63.68],[22.69,63.85],[22.87,63.84],[22.89,63.89],[23.04,63.87],[23.35,63.93],[23.39,63.98],[23.42,64.06],[23.62,64.05],[23.75,64.17],[23.79,64.2],[23.84,64.24],[24.0,64.38],[24.32,64.54],[24.59,64.81],[25.0,64.9],[25.25,64.89],[25.35,64.97],[25.27,65.17],[25.28,65.46],[25.08,65.59],[24.69,65.65],[24.56,65.73],[24.18,65.77],[24.16,65.82],[24.12,65.92],[23.91,66.15],[23.73,66.2],[23.66,66.29],[23.68,66.46],[23.87,66.57],[23.97,66.84],[23.56,67.19],[23.59,67.26],[23.73,67.31],[23.74,67.42],[23.42,67.48],[23.54,67.59],[23.49,67.83],[23.62,67.92],[23.61,67.97],[23.3,68.14],[23.17,68.15],[23.05,68.3],[22.36,68.47],[22.06,68.48],[21.53,68.68],[20.93,68.9],[20.78,69.02],[20.55,69.06],[20.73,69.11],[21.02,69.06],[21.07,69.11],[21.01,69.18],[21.04,69.24],[21.29,69.31],[21.53,69.29],[21.6,69.28],[21.69,69.24],[21.98,69.07],[22.4,68.73],[23.2,68.64],[23.65,68.71],[23.79,68.82],[23.92,68.83],[24.87,68.58],[25.09,68.64],[25.23,68.83],[25.66,68.93],[25.74,69.03],[25.7,69.24],[25.75,69.33],[25.82,69.37],[25.81,69.43],[25.91,69.57],[25.98,69.7],[26.49,69.94],[27.07,69.92],[27.65,70.07],[27.94,70.08]]],[[[20.24,60.28],[20.17,60.18],[20.04,60.2],[20.05,60.13],[20.17,60.09],[20.26,60.17],[20.29,60.1],[20.17,60.01],[19.56,60.19],[19.55,60.21],[19.67,60.3],[19.7,60.37],[19.83,60.25],[19.86,60.41],[20.17,60.35],[20.24,60.28]]],[[[21.44,63.2],[21.28,63.17],[21.13,63.28],[21.23,63.39],[21.39,63.36],[21.37,63.32],[21.44,63.2]]],[[[24.87,64.98],[24.78,64.94],[24.58,65.0],[24.58,65.05],[24.85,65.09],[24.87,64.98]]],[[[20.61,60.04],[20.52,59.97],[20.37,60.02],[20.46,60.09],[20.47,60.13],[20.61,60.11],[20.61,60.04]]],[[[22.08,60.24],[22.14,60.19],[22.12,60.15],[21.97,60.1],[21.9,60.13],[21.93,60.14],[21.93,60.24],[22.02,60.21],[22.08,60.24]]],[[[21.72,60.24],[21.56,60.23],[21.56,60.28],[21.64,60.3],[21.63,60.34],[21.67,60.43],[21.74,60.36],[21.68,60.29],[21.72,60.24]]],[[[21.21,60.41],[21.25,60.34],[21.29,60.38],[21.33,60.28],[21.28,60.26],[21.14,60.31],[21.13,60.38],[21.21,60.41]]],[[[21.86,60.16],[21.8,60.11],[21.7,60.13],[21.73,60.2],[21.86,60.22],[21.86,60.16]]],[[[21.67,60.1],[21.54,60.09],[21.5,60.14],[21.58,60.19],[21.65,60.17],[21.67,60.1]]],[[[20.44,60.32],[20.42,60.23],[20.31,60.25],[20.4,60.35],[20.44,60.32]]],[[[21.07,60.4],[21.02,60.33],[20.96,60.43],[20.98,60.47],[21.07,60.4]]],[[[21.12,60.53],[21.1,60.46],[21.02,60.48],[21.0,60.53],[21.02,60.56],[21.12,60.53]]],[[[21.03,60.69],[21.0,60.58],[20.92,60.61],[20.97,60.71],[21.03,60.69]]],[[[20.81,60.23],[20.71,60.23],[20.69,60.26],[20.76,60.31],[20.83,60.27],[20.81,60.23]]],[[[20.85,63.14],[20.75,63.04],[20.71,63.06],[20.77,63.16],[20.85,63.14]]],[[[22.44,59.81],[22.39,59.8],[22.35,59.84],[22.38,59.91],[22.44,59.92],[22.44,59.81]]]]}},{"type":"Feature","properties":{"id":"FR","name":"France","eu":true},"geometry":{"type":"MultiPolygon","coordinates":[[[[2.09,51.0],[2.3,51.04],[2.55,51.09],[2.58,51.0],[2.61,50.91],[2.65,50.83],[2.86,50.71],[3.02,50.77],[3.1,50.78],[3.18,50.76],[3.25,50.71],[3.31,50.52],[3.55,50.5],[3.62,50.49],[3.66,50.46],[3.67,50.4],[3.72,50.33],[4.03,50.36],[4.19,50.24],[4.21,50.08],[4.14,49.98],[4.23,49.96],[4.43,49.94],[4.66,49.99],[4.8,50.15],[4.85,50.13],[4.81,49.97],[4.87,49.81],[4.97,49.8],[5.15,49.72],[5.39,49.62],[5.47,49.5],[5.73,49.55],[5.82,49.55],[5.89,49.5],[6.37,49.46],[6.56,49.42],[6.72,49.22],[6.78,49.16],[6.93,49.21],[7.1,49.16],[7.25,49.12],[7.37,49.16],[7.48,49.16],[7.64,49.05],[7.91,49.05],[8.07,49.0],[8.23,48.97],[7.96,48.72],[7.82,48.61],[7.68,48.26],[7.58,48.12],[7.58,48.12],[7.6,47.97],[7.55,47.74],[7.52,47.67],[7.59,47.59],[7.56,47.56],[7.51,47.5],[7.38,47.43],[7.22,47.43],[7.13,47.5],[6.94,47.43],[6.94,47.38],[7.02,47.33],[6.86,47.17],[6.46,46.93],[6.46,46.85],[6.41,46.75],[6.14,46.56],[6.06,46.42],[6.14,46.37],[6.13,46.32],[5.96,46.13],[6.23,46.2],[6.22,46.31],[6.5,46.45],[6.82,46.43],[6.82,46.16],[7.04,45.92],[6.8,45.78],[6.98,45.63],[7.01,45.51],[7.1,45.47],[7.16,45.4],[7.1,45.23],[6.63,45.11],[6.78,44.9],[7.01,44.83],[7.07,44.71],[6.95,44.65],[6.87,44.52],[6.89,44.36],[7.04,44.23],[7.38,44.12],[7.6,44.14],[7.71,44.06],[7.52,43.89],[7.53,43.78],[7.44,43.75],[7.44,43.75],[7.41,43.73],[7.41,43.73],[7.41,43.73],[7.42,43.73],[7.17,43.64],[6.98,43.51],[6.93,43.48],[6.9,43.44],[6.72,43.38],[6.64,43.18],[6.29,43.11],[5.83,43.06],[5.67,43.18],[5.4,43.21],[5.3,43.33],[5.07,43.34],[4.89,43.42],[4.67,43.36],[4.53,43.44],[4.23,43.46],[4.16,43.51],[4.1,43.55],[3.95,43.53],[3.91,43.51],[3.8,43.44],[3.64,43.38],[3.55,43.31],[3.24,43.21],[3.07,43.0],[3.04,42.84],[3.04,42.8],[3.05,42.63],[3.05,42.58],[3.17,42.44],[2.88,42.46],[2.71,42.4],[2.55,42.34],[2.35,42.4],[2.3,42.41],[2.23,42.43],[2.14,42.4],[2.04,42.36],[1.99,42.4],[1.92,42.45],[1.73,42.49],[1.73,42.5],[1.79,42.57],[1.56,42.63],[1.53,42.64],[1.51,42.63],[1.44,42.6],[1.41,42.63],[1.32,42.71],[0.91,42.81],[0.86,42.83],[0.71,42.85],[0.67,42.8],[0.66,42.69],[0.48,42.7],[0.26,42.7],[-0.01,42.7],[-0.31,42.85],[-0.57,42.82],[-0.69,42.9],[-0.72,42.92],[-1.13,43.03],[-1.31,43.08],[-1.39,43.04],[-1.44,43.05],[-1.47,43.08],[-1.42,43.13],[-1.39,43.19],[-1.39,43.26],[-1.73,43.3],[-1.79,43.35],[-1.52,43.53],[-1.37,44.05],[-1.25,44.47],[-1.21,44.61],[-1.11,44.68],[-1.23,44.8],[-1.14,45.48],[-1.05,45.52],[-0.78,45.3],[-0.71,45.33],[-0.84,45.49],[-1.2,45.7],[-1.34,45.94],[-1.31,45.99],[-1.19,45.87],[-1.14,45.89],[-1.1,46.04],[-1.19,46.18],[-1.08,46.32],[-1.13,46.32],[-1.18,46.31],[-1.22,46.28],[-1.39,46.34],[-1.79,46.49],[-1.9,46.65],[-2.09,46.8],[-2.15,46.84],[-2.09,46.9],[-1.98,47.03],[-2.09,47.09],[-2.16,47.13],[-2.19,47.25],[-2.48,47.3],[-2.51,47.38],[-2.46,47.45],[-2.51,47.51],[-2.58,47.51],[-2.8,47.5],[-3.38,47.69],[-3.52,47.81],[-4.32,47.83],[-4.55,48.02],[-4.33,48.14],[-4.47,48.24],[-4.43,48.32],[-4.7,48.36],[-4.75,48.42],[-4.68,48.55],[-4.32,48.66],[-4.04,48.7],[-3.66,48.66],[-3.54,48.81],[-3.17,48.86],[-2.7,48.55],[-2.58,48.59],[-2.51,48.61],[-2.34,48.66],[-2.09,48.59],[-1.94,48.68],[-1.78,48.62],[-1.57,48.63],[-1.5,48.68],[-1.57,48.82],[-1.62,49.15],[-1.8,49.41],[-1.87,49.67],[-1.3,49.67],[-1.26,49.5],[-1.12,49.32],[-0.96,49.39],[-0.18,49.29],[0.26,49.42],[0.3,49.43],[0.31,49.43],[0.33,49.43],[0.34,49.43],[0.37,49.44],[0.37,49.44],[0.41,49.45],[0.43,49.45],[0.46,49.47],[0.48,49.47],[0.48,49.48],[0.49,49.48],[0.5,49.48],[0.52,49.48],[0.52,49.48],[0.54,49.46],[0.56,49.45],[0.57,49.44],[0.58,49.43],[0.58,49.43],[0.59,49.43],[0.6,49.43],[0.61,49.43],[0.61,49.43],[0.62,49.43],[0.62,49.43],[0.61,49.43],[0.6,49.43],[0.58,49.44],[0.57,49.45],[0.55,49.46],[0.54,49.47],[0.53,49.48],[0.52,49.48],[0.51,49.49],[0.51,49.49],[0.5,49.49],[0.49,49.49],[0.48,49.48],[0.48,49.48],[0.46,49.47],[0.44,49.46],[0.43,49.46],[0.42,49.46],[0.4,49.45],[0.39,49.45],[0.38,49.45],[0.36,49.45],[0.34,49.45],[0.3,49.45],[0.27,49.45],[0.27,49.45],[0.26,49.45],[0.09,49.52],[0.16,49.67],[0.26,49.73],[1.38,50.07],[1.6,50.21],[1.55,50.33],[1.64,50.35],[1.57,50.45],[1.61,50.84],[2.09,51.0]]],[[[9.35,41.62],[9.21,41.4],[8.83,41.55],[8.8,41.62],[8.85,41.67],[8.67,41.95],[8.59,42.37],[8.76,42.56],[8.91,42.63],[9.1,42.71],[9.29,42.72],[9.35,42.94],[9.41,42.96],[9.46,42.9],[9.5,42.63],[9.52,42.4],[9.54,42.23],[9.46,41.98],[9.4,41.86],[9.38,41.67],[9.35,41.62]]],[[[-3.26,47.35],[-3.25,47.39],[-3.16,47.36],[-3.11,47.29],[-3.22,47.29],[-3.26,47.35]]],[[[-2.33,47.04],[-2.24,47.05],[-2.23,46.97],[-2.27,46.95],[-2.33,46.98],[-2.33,47.04]]],[[[-1.46,46.21],[-1.47,46.2],[-1.54,46.2],[-1.57,46.25],[-1.51,46.26],[-1.46,46.22],[-1.46,46.21]]],[[[-1.46,46.21],[-1.44,46.24],[-1.41,46.24],[-1.41,46.2],[-1.43,46.18],[-1.46,46.21]]]]}},{"type":"Feature","properties":{"id":"HR","name":"Croatia","eu":true},"geometry":{"type":"MultiPolygon","coordinates":[[[[16.6,46.48],[16.85,46.35],[16.88,46.32],[17.15,46.16],[17.29,45.99],[17.56,45.93],[17.65,45.85],[17.91,45.79],[18.44,45.75],[18.66,45.9],[18.82,45.91],[18.89,45.92],[18.95,45.66],[18.92,45.58],[19.07,45.52],[19.03,45.49],[19.01,45.43],[19.0,45.39],[19.13,45.29],[19.39,45.23],[19.43,45.17],[19.11,45.13],[19.13,44.95],[19.0,44.89],[19.02,44.86],[18.86,44.86],[18.8,44.89],[18.75,45.02],[18.53,45.09],[18.25,45.12],[18.15,45.08],[18.02,45.13],[17.83,45.06],[17.68,45.12],[17.14,45.16],[16.94,45.25],[16.8,45.2],[16.56,45.22],[16.3,45.0],[16.01,45.2],[15.84,45.22],[15.74,44.94],[15.76,44.89],[15.78,44.77],[15.94,44.71],[16.09,44.53],[16.13,44.5],[16.13,44.45],[16.2,44.34],[16.17,44.21],[16.21,44.21],[16.26,44.18],[16.54,43.97],[17.02,43.57],[17.16,43.51],[17.29,43.46],[17.29,43.34],[17.45,43.18],[17.66,43.02],[17.58,42.94],[17.58,42.94],[17.57,42.94],[17.57,42.93],[17.57,42.93],[17.56,42.92],[17.57,42.92],[17.57,42.91],[17.57,42.91],[17.58,42.9],[17.55,42.86],[17.38,42.91],[17.44,42.99],[17.36,43.08],[16.96,43.29],[16.56,43.3],[16.55,43.35],[16.66,43.4],[16.51,43.49],[16.02,43.5],[15.83,43.72],[15.56,43.87],[15.39,43.93],[15.19,44.15],[15.22,44.25],[15.35,44.3],[15.29,44.36],[14.95,44.56],[14.88,45.03],[14.76,45.1],[14.74,44.99],[14.54,45.04],[14.51,45.24],[14.4,45.31],[14.3,45.29],[14.23,45.15],[13.99,44.83],[13.94,44.78],[13.92,44.82],[13.86,44.83],[13.6,45.17],[13.52,45.46],[13.65,45.45],[14.11,45.48],[14.12,45.48],[14.39,45.5],[14.57,45.67],[14.77,45.51],[14.84,45.47],[14.98,45.51],[15.23,45.43],[15.36,45.49],[15.29,45.59],[15.28,45.73],[15.33,45.76],[15.4,45.79],[15.65,45.84],[15.71,45.98],[15.7,46.05],[15.63,46.09],[15.63,46.18],[15.79,46.26],[15.87,46.28],[16.14,46.39],[16.3,46.38],[16.24,46.49],[16.37,46.53],[16.6,46.48]]],[[[17.83,42.89],[18.21,42.63],[18.22,42.62],[18.44,42.56],[18.53,42.42],[18.13,42.63],[17.88,42.77],[17.61,42.85],[17.62,42.88],[17.63,42.88],[17.64,42.88],[17.64,42.88],[17.65,42.89],[17.65,42.89],[17.83,42.89]]],[[[14.43,44.62],[14.46,44.54],[14.32,44.56],[14.37,44.64],[14.32,44.91],[14.39,44.93],[14.4,44.99],[14.46,44.96],[14.46,44.83],[14.5,44.62],[14.43,44.62]]],[[[17.23,42.99],[17.23,42.96],[17.15,42.91],[16.68,42.91],[16.66,42.96],[16.68,42.99],[16.78,42.97],[16.95,42.97],[17.06,43.04],[17.23,42.99]]],[[[15.26,43.9],[15.2,43.86],[15.1,43.93],[15.02,44.03],[15.07,44.08],[15.12,44.04],[15.1,43.99],[15.26,43.9]]],[[[16.66,43.22],[16.74,43.14],[16.69,43.12],[16.43,43.16],[16.42,43.18],[16.45,43.21],[16.57,43.18],[16.66,43.22]]],[[[15.17,44.4],[15.18,44.32],[15.11,44.33],[15.03,44.42],[15.05,44.48],[15.17,44.4]]],[[[16.23,43.02],[16.08,43.01],[16.06,43.05],[16.12,43.08],[16.24,43.07],[16.23,43.02]]],[[[15.33,43.89],[15.34,43.77],[15.23,43.83],[15.23,43.87],[15.33,43.89]]],[[[16.98,43.15],[17.0,43.11],[16.8,43.12],[16.78,43.15],[16.79,43.16],[16.98,43.15]]],[[[14.8,44.78],[14.73,44.75],[14.68,44.82],[14.8,44.86],[14.8,44.78]]],[[[16.41,42.35],[16.29,42.34],[16.25,42.38],[16.38,42.42],[16.41,42.35]]],[[[14.94,44.2],[14.96,44.08],[14.87,44.11],[14.84,44.15],[14.94,44.2]]],[[[16.38,43.36],[16.34,43.33],[16.21,43.4],[16.25,43.43],[16.34,43.4],[16.38,43.36]]],[[[14.64,44.37],[14.55,44.36],[14.51,44.44],[14.57,44.48],[14.64,44.37]]],[[[14.38,45.15],[14.36,45.05],[14.27,45.12],[14.32,45.18],[14.38,45.15]]]]}},{"type":"Feature","properties":{"id":"HU","name":"Hungary","eu":true},"geometry":{"type":"MultiPolygon","coordinates":[[[[21.42,48.57],[21.61,48.49],[21.75,48.35],[22.12,48.38],[22.16,48.4],[22.51,48.23],[22.62,48.11],[22.83,48.1],[22.9,47.95],[22.67,47.8],[22.47,47.79],[22.22,47.67],[22.18,47.6],[22.13,47.6],[22.04,47.52],[22.01,47.4],[21.66,47.02],[21.44,46.65],[21.32,46.6],[21.3,46.43],[21.16,46.31],[21.04,46.25],[20.78,46.28],[20.71,46.16],[20.26,46.13],[20.22,46.13],[19.87,46.15],[19.7,46.19],[19.57,46.17],[19.3,45.99],[19.11,46.02],[19.03,45.94],[18.89,45.92],[18.82,45.91],[18.66,45.9],[18.44,45.75],[17.91,45.79],[17.65,45.85],[17.56,45.93],[17.29,45.99],[17.15,46.16],[16.88,46.32],[16.85,46.35],[16.6,46.48],[16.37,46.72],[16.31,46.85],[16.11,46.87],[16.3,46.99],[16.44,47.02],[16.48,47.11],[16.43,47.35],[16.65,47.45],[16.67,47.6],[16.42,47.67],[16.6,47.74],[16.8,47.69],[17.03,47.71],[17.16,48.01],[17.25,48.01],[17.71,47.76],[17.89,47.74],[18.32,47.74],[18.85,47.82],[18.78,47.88],[18.78,47.96],[18.93,48.06],[19.01,48.08],[19.45,48.1],[19.61,48.24],[19.91,48.15],[20.05,48.17],[20.3,48.29],[20.46,48.46],[20.54,48.54],[20.78,48.57],[21.13,48.51],[21.42,48.57]]]]}},{"type":"Feature","properties":{"id":"IS","name":"Iceland","eu":false},"geometry":{"type":"MultiPolygon","coordinates":[[[[-16.13,66.49],[-15.49,66.23],[-15.04,66.26],[-14.99,66.13],[-14.75,65.98],[-14.66,65.8],[-14.31,65.72],[-13.77,65.49],[-13.66,65.08],[-13.93,64.81],[-14.4,64.61],[-14.57,64.44],[-14.91,64.3],[-15.51,64.23],[-15.99,64.11],[-16.66,63.82],[-17.53,63.73],[-18.0,63.53],[-18.43,63.44],[-19.15,63.42],[-20.03,63.53],[-21.25,63.86],[-22.01,63.84],[-22.13,63.84],[-22.7,63.82],[-22.73,63.99],[-22.66,64.07],[-22.45,63.98],[-22.13,64.04],[-21.81,64.15],[-21.84,64.26],[-21.75,64.33],[-21.37,64.38],[-21.92,64.36],[-22.31,64.61],[-22.6,64.77],[-23.72,64.8],[-23.43,64.93],[-22.15,65.03],[-22.11,65.1],[-22.34,65.21],[-22.16,65.39],[-22.2,65.46],[-22.92,65.57],[-23.83,65.45],[-24.18,65.58],[-23.96,65.73],[-23.64,65.74],[-23.71,65.98],[-23.48,66.14],[-23.18,66.14],[-22.54,66.0],[-22.59,66.1],[-22.92,66.33],[-22.92,66.39],[-22.83,66.43],[-22.39,66.4],[-21.52,66.0],[-21.4,65.84],[-21.4,65.62],[-21.12,65.4],[-20.79,65.6],[-20.39,65.7],[-20.33,65.99],[-20.24,66.06],[-20.05,66.04],[-19.54,65.82],[-19.33,66.03],[-18.82,66.13],[-18.19,65.85],[-18.21,66.04],[-18.17,66.1],[-17.42,66.05],[-17.13,66.15],[-16.62,66.21],[-16.41,66.46],[-16.13,66.49]]]]}},{"type":"Feature","properties":{"id":"IT","name":"Italy","eu":true},"geometry":{"type":"MultiPolygon","coordinates":[[[[12.14,47.0],[12.16,46.92],[12.48,46.68],[12.69,46.66],[12.73,46.63],[13.5,46.57],[13.71,46.52],[13.68,46.44],[13.4,46.31],[13.43,46.24],[13.64,46.17],[13.5,46.05],[13.52,45.98],[13.62,45.96],[13.6,45.82],[13.6,45.81],[13.78,45.75],[13.9,45.64],[13.84,45.59],[13.72,45.59],[13.73,45.69],[13.58,45.79],[13.41,45.73],[13.14,45.76],[13.1,45.64],[12.68,45.52],[12.51,45.53],[12.49,45.47],[12.35,45.4],[12.25,45.41],[12.13,45.3],[12.2,45.26],[12.33,45.16],[12.31,45.07],[12.46,44.95],[12.4,44.79],[12.28,44.82],[12.27,44.63],[12.38,44.22],[12.45,44.16],[12.75,43.97],[13.17,43.75],[13.56,43.59],[13.62,43.51],[13.64,43.47],[13.74,43.29],[13.85,43.07],[13.92,42.89],[14.08,42.63],[14.15,42.53],[14.25,42.44],[14.33,42.4],[14.62,42.22],[14.69,42.18],[14.77,42.07],[14.92,42.02],[15.0,41.98],[15.14,41.93],[16.13,41.91],[16.17,41.77],[16.02,41.67],[15.96,41.62],[15.91,41.58],[16.02,41.43],[16.54,41.23],[17.07,41.07],[17.39,40.89],[17.98,40.65],[18.1,40.52],[18.39,40.32],[18.5,40.15],[18.37,39.81],[18.07,39.92],[17.96,40.16],[17.76,40.3],[17.48,40.31],[17.11,40.51],[16.87,40.4],[16.64,40.12],[16.61,39.95],[16.5,39.8],[16.53,39.68],[17.03,39.48],[17.14,39.39],[17.14,39.19],[17.15,38.94],[16.89,38.93],[16.57,38.76],[16.58,38.47],[16.21,38.18],[16.07,37.94],[15.74,37.93],[15.65,38.02],[15.65,38.21],[15.81,38.31],[15.92,38.51],[15.86,38.66],[16.13,38.73],[16.21,38.81],[16.21,38.91],[16.09,39.05],[16.06,39.19],[16.01,39.41],[15.83,39.65],[15.76,39.92],[15.64,40.04],[15.56,40.07],[15.42,40.0],[15.35,40.01],[15.29,40.03],[15.25,40.08],[15.15,40.16],[15.04,40.18],[14.94,40.23],[14.93,40.27],[14.99,40.36],[14.99,40.4],[14.88,40.58],[14.79,40.66],[14.55,40.62],[14.47,40.62],[14.4,40.75],[14.03,40.9],[13.76,41.22],[13.29,41.29],[13.07,41.24],[12.77,41.42],[12.61,41.47],[12.43,41.62],[12.37,41.67],[12.0,41.98],[11.96,42.02],[11.83,42.04],[11.73,42.16],[11.69,42.22],[11.64,42.28],[11.45,42.38],[11.15,42.41],[11.15,42.53],[11.05,42.63],[10.96,42.72],[10.79,42.79],[10.71,42.94],[10.51,42.96],[10.51,43.26],[10.35,43.51],[10.3,43.58],[10.26,43.82],[10.14,43.98],[10.02,44.04],[9.8,44.07],[9.51,44.22],[9.13,44.36],[8.77,44.42],[8.63,44.38],[8.27,44.13],[8.14,43.94],[7.96,43.85],[7.53,43.78],[7.52,43.89],[7.71,44.06],[7.6,44.14],[7.38,44.12],[7.04,44.23],[6.89,44.36],[6.87,44.52],[6.95,44.65],[7.07,44.71],[7.01,44.83],[6.78,44.9],[6.63,45.11],[7.1,45.23],[7.16,45.4],[7.1,45.47],[7.01,45.51],[6.98,45.63],[6.8,45.78],[7.04,45.92],[7.15,45.86],[7.58,45.97],[7.86,45.92],[7.88,45.93],[8.14,46.15],[8.11,46.26],[8.38,46.45],[8.46,46.42],[8.46,46.25],[8.71,46.1],[8.83,46.07],[8.91,45.83],[9.04,45.87],[9.03,46.02],[9.16,46.17],[9.25,46.23],[9.26,46.45],[9.32,46.5],[9.44,46.48],[9.57,46.31],[9.91,46.37],[10.09,46.24],[10.16,46.27],[10.13,46.4],[10.05,46.47],[10.11,46.58],[10.22,46.62],[10.45,46.53],[10.47,46.6],[10.4,46.68],[10.47,46.85],[10.66,46.86],[10.99,46.77],[11.16,46.97],[11.63,47.01],[11.77,46.98],[12.14,47.08],[12.24,47.07],[12.14,47.0]],[[12.36,41.88],[12.39,41.87],[12.52,41.88],[12.49,41.95],[12.43,41.94],[12.36,41.88]],[[12.42,43.95],[12.42,43.9],[12.49,43.92],[12.5,43.98],[12.42,43.95]]],[[[15.54,38.15],[15.26,37.81],[15.1,37.48],[15.09,37.36],[15.23,37.26],[15.2,37.18],[15.3,37.05],[15.12,36.86],[15.12,36.68],[15.0,36.7],[14.53,36.79],[14.34,37.0],[14.04,37.11],[13.69,37.19],[12.9,37.58],[12.68,37.58],[12.49,37.69],[12.44,37.8],[12.51,38.01],[12.75,38.15],[12.88,38.04],[12.98,38.04],[13.1,38.17],[13.3,38.21],[13.73,37.98],[14.18,38.02],[14.38,38.02],[14.76,38.16],[15.1,38.13],[15.56,38.28],[15.54,38.15]]],[[[9.53,41.02],[9.75,40.66],[9.81,40.49],[9.63,40.22],[9.72,40.06],[9.65,39.55],[9.58,39.18],[9.55,39.14],[9.46,39.13],[9.37,39.18],[9.22,39.22],[9.14,39.19],[9.09,39.21],[9.04,39.18],[9.02,39.01],[8.88,38.89],[8.63,38.91],[8.61,38.96],[8.52,39.05],[8.41,38.98],[8.37,39.07],[8.4,39.18],[8.39,39.45],[8.46,39.71],[8.5,39.71],[8.53,39.86],[8.41,39.94],[8.48,40.25],[8.4,40.41],[8.31,40.57],[8.16,40.6],[8.21,40.86],[8.51,40.83],[8.8,40.93],[8.88,41.02],[9.2,41.24],[9.52,41.14],[9.53,41.02]]],[[[10.45,42.85],[10.43,42.72],[10.36,42.76],[10.13,42.73],[10.1,42.78],[10.18,42.81],[10.24,42.79],[10.27,42.83],[10.37,42.82],[10.42,42.88],[10.45,42.85]]],[[[14.9,38.61],[14.89,38.53],[14.97,38.53],[14.95,38.44],[14.78,38.56],[14.82,38.61],[14.9,38.61]]],[[[12.05,36.75],[11.99,36.73],[11.92,36.82],[11.95,36.84],[12.05,36.8],[12.05,36.75]]],[[[8.33,39.2],[8.29,39.07],[8.22,39.13],[8.25,39.2],[8.33,39.2]]],[[[12.91,35.91],[12.92,35.82],[12.83,35.82],[12.79,35.88],[12.91,35.91]]],[[[13.97,40.75],[13.93,40.68],[13.83,40.7],[13.85,40.77],[13.97,40.75]]],[[[15.6,42.15],[15.51,42.09],[15.47,42.18],[15.54,42.21],[15.6,42.15]]],[[[10.97,42.36],[10.89,42.29],[10.84,42.36],[10.89,42.4],[10.93,42.4],[10.97,42.36]]],[[[9.89,43.05],[9.82,42.98],[9.77,43.04],[9.83,43.12],[9.89,43.05]]],[[[8.27,40.97],[8.23,40.88],[8.14,40.93],[8.2,41.0],[8.27,40.97]]],[[[8.36,41.05],[8.29,41.04],[8.25,41.11],[8.32,41.14],[8.37,41.09],[8.36,41.05]]]]}},{"type":"Feature","properties":{"id":"IE","name":"Ireland","eu":true},"geometry":{"type":"MultiPolygon","coordinates":[[[[-7.06,55.25],[-7.26,55.07],[-7.61,54.75],[-7.82,54.7],[-7.7,54.61],[-8.0,54.53],[-8.13,54.44],[-8.1,54.41],[-7.85,54.23],[-7.61,54.15],[-7.3,54.13],[-7.16,54.24],[-7.19,54.34],[-7.02,54.41],[-6.86,54.33],[-6.79,54.21],[-6.64,54.18],[-6.65,54.09],[-6.59,54.04],[-6.27,54.1],[-6.19,54.02],[-6.36,53.95],[-6.25,53.83],[-6.21,53.63],[-6.1,53.55],[-6.17,53.33],[-6.1,53.21],[-6.03,52.96],[-6.14,52.74],[-6.29,52.47],[-6.35,52.41],[-6.36,52.37],[-6.43,52.32],[-6.34,52.24],[-6.38,52.18],[-6.96,52.21],[-7.03,52.14],[-7.42,52.13],[-7.57,52.08],[-7.63,51.99],[-7.84,51.95],[-8.69,51.6],[-9.33,51.49],[-9.59,51.55],[-9.65,51.68],[-10.01,51.64],[-10.02,51.77],[-10.29,51.86],[-10.06,52.08],[-10.3,52.15],[-10.29,52.22],[-9.94,52.27],[-9.8,52.47],[-9.6,52.56],[-9.37,52.57],[-9.66,52.65],[-9.3,53.08],[-9.01,53.14],[-9.0,53.2],[-9.05,53.26],[-9.71,53.25],[-9.85,53.31],[-9.88,53.4],[-10.09,53.42],[-10.14,53.5],[-10.07,53.58],[-9.91,53.62],[-9.89,53.75],[-9.68,53.83],[-9.73,53.89],[-9.94,53.88],[-10.06,53.96],[-10.04,54.0],[-9.87,53.99],[-9.96,54.19],[-10.06,54.22],[-10.04,54.26],[-9.69,54.32],[-9.35,54.31],[-9.13,54.16],[-8.98,54.27],[-8.67,54.28],[-8.59,54.38],[-8.27,54.54],[-8.28,54.61],[-8.62,54.63],[-8.75,54.69],[-8.46,54.85],[-8.42,55.0],[-8.28,55.13],[-7.68,55.23],[-7.53,55.07],[-7.48,55.25],[-7.38,55.32],[-7.06,55.25]]],[[[-8.47,54.99],[-8.55,54.94],[-8.6,55.04],[-8.55,55.06],[-8.47,54.99]]],[[[-9.68,51.47],[-9.77,51.45],[-9.82,51.48],[-9.76,51.54],[-9.69,51.53],[-9.68,51.47]]],[[[-10.12,54.03],[-10.14,53.93],[-10.22,53.98],[-10.21,54.04],[-10.12,54.03]]]]}},{"type":"Feature","properties":{"id":"LI","name":"Liechtenstein","eu":false},"geometry":{"type":"MultiPolygon","coordinates":[[[[9.48,47.05],[9.53,47.27],[9.62,47.15],[9.61,47.06],[9.48,47.05]]]]}},{"type":"Feature","properties":{"id":"NL","name":"Netherlands","eu":true},"geometry":{"type":"MultiPolygon","coordinates":[[[[6.87,53.41],[6.92,53.34],[7.07,53.3],[7.09,53.26],[7.21,53.24],[7.22,53.2],[7.2,53.11],[7.2,52.98],[7.09,52.84],[7.01,52.64],[6.71,52.63],[6.7,52.49],[7.01,52.44],[7.07,52.24],[6.76,52.12],[6.73,52.05],[6.78,51.94],[6.41,51.83],[6.17,51.9],[6.01,51.83],[5.95,51.75],[6.2,51.52],[6.22,51.36],[6.07,51.24],[6.17,51.18],[5.88,51.03],[6.09,50.91],[6.02,50.75],[5.89,50.76],[5.77,50.77],[5.68,50.76],[5.69,50.81],[5.67,50.87],[5.77,51.01],[5.8,51.06],[5.79,51.16],[5.57,51.22],[5.5,51.29],[5.24,51.26],[5.11,51.35],[5.1,51.43],[5.04,51.47],[4.86,51.43],[4.76,51.5],[4.67,51.43],[4.49,51.47],[4.41,51.45],[4.39,51.37],[4.28,51.38],[4.24,51.37],[3.78,51.42],[3.57,51.5],[3.64,51.57],[3.86,51.59],[3.84,51.76],[4.04,51.85],[4.0,51.97],[4.13,52.0],[4.16,52.03],[4.2,52.05],[4.37,52.19],[4.49,52.33],[4.56,52.44],[4.61,52.57],[4.65,52.76],[4.73,53.06],[4.82,53.16],[4.9,53.11],[4.79,53.0],[4.84,52.91],[5.16,53.0],[5.41,53.15],[5.43,53.2],[5.82,53.37],[6.19,53.41],[6.3,53.4],[6.75,53.46],[6.87,53.41]]],[[[3.55,51.4],[3.81,51.34],[3.98,51.39],[4.23,51.35],[3.98,51.23],[3.86,51.21],[3.75,51.27],[3.55,51.29],[3.38,51.27],[3.37,51.37],[3.55,51.4]]],[[[5.23,53.42],[5.26,53.4],[5.26,53.4],[5.27,53.4],[5.27,53.41],[5.28,53.41],[5.3,53.41],[5.31,53.41],[5.31,53.41],[5.32,53.41],[5.32,53.4],[5.32,53.39],[5.32,53.39],[5.32,53.38],[5.31,53.38],[5.31,53.38],[5.3,53.37],[5.3,53.37],[5.3,53.37],[5.29,53.37],[5.28,53.37],[5.28,53.37],[5.27,53.37],[5.27,53.38],[5.26,53.38],[5.26,53.38],[5.26,53.39],[5.26,53.37],[5.23,53.34],[5.17,53.33],[5.14,53.37],[5.16,53.4],[5.2,53.42],[5.23,53.42]]],[[[5.73,53.44],[5.63,53.4],[5.56,53.45],[5.66,53.5],[5.73,53.44]]],[[[6.68,53.54],[6.62,53.49],[6.54,53.53],[6.62,53.57],[6.68,53.54]]]]}},{"type":"Feature","properties":{"id":"MT","name":"Malta","eu":true},"geometry":{"type":"MultiPolygon","coordinates":[[[[14.56,35.85],[14.51,35.81],[14.38,35.85],[14.34,35.89],[14.33,35.97],[14.38,35.97],[14.56,35.85]]],[[[14.32,36.05],[14.27,36.0],[14.17,36.03],[14.17,36.07],[14.25,36.09],[14.32,36.05]]]]}},{"type":"Feature","properties":{"id":"PT","name":"Portugal","eu":true},"geometry":{"type":"MultiPolygon","coordinates":[[[[-8.2,41.93],[-8.17,41.82],[-8.05,41.82],[-7.73,41.9],[-7.42,41.83],[-7.2,41.88],[-7.16,41.97],[-6.99,41.97],[-6.6,41.93],[-6.52,41.71],[-6.31,41.66],[-6.21,41.56],[-6.34,41.38],[-6.42,41.34],[-6.44,41.3],[-6.48,41.29],[-6.69,41.21],[-6.81,41.06],[-6.93,41.03],[-6.81,40.83],[-6.8,40.36],[-6.87,40.27],[-6.95,40.26],[-7.01,40.16],[-6.88,39.98],[-7.02,39.69],[-7.54,39.66],[-7.31,39.46],[-7.23,39.28],[-7.13,39.12],[-6.97,39.03],[-7.07,38.85],[-7.2,38.75],[-7.31,38.46],[-7.11,38.19],[-6.93,38.21],[-7.01,38.04],[-7.24,37.96],[-7.51,37.53],[-7.4,37.17],[-7.89,36.97],[-8.17,37.08],[-8.58,37.11],[-8.96,37.02],[-8.91,37.19],[-8.8,37.44],[-8.8,37.86],[-8.87,37.98],[-8.74,38.52],[-9.18,38.43],[-9.25,38.64],[-9.49,38.74],[-9.42,39.05],[-9.34,39.35],[-9.14,39.53],[-9.04,39.74],[-8.89,40.05],[-8.78,40.52],[-8.69,40.69],[-8.65,40.96],[-8.78,41.47],[-8.8,41.56],[-8.81,41.61],[-8.86,41.87],[-8.61,42.05],[-8.2,42.15],[-8.1,42.04],[-8.2,41.93]]],[[[-25.69,37.84],[-25.59,37.81],[-25.49,37.85],[-25.43,37.82],[-25.26,37.86],[-25.15,37.85],[-25.14,37.78],[-25.17,37.74],[-25.25,37.75],[-25.37,37.71],[-25.51,37.71],[-25.57,37.74],[-25.7,37.74],[-25.84,37.83],[-25.86,37.86],[-25.79,37.91],[-25.69,37.84]]],[[[-28.05,38.44],[-28.04,38.4],[-28.45,38.42],[-28.53,38.45],[-28.55,38.51],[-28.52,38.55],[-28.39,38.56],[-28.19,38.46],[-28.05,38.44]]],[[[-27.04,38.74],[-27.08,38.64],[-27.28,38.65],[-27.35,38.69],[-27.38,38.75],[-27.33,38.79],[-27.26,38.8],[-27.1,38.79],[-27.04,38.74]]],[[[-27.79,38.56],[-27.83,38.53],[-27.94,38.59],[-28.03,38.6],[-28.22,38.68],[-28.23,38.71],[-28.2,38.72],[-28.02,38.67],[-27.79,38.56]]],[[[-28.63,38.52],[-28.75,38.52],[-28.82,38.59],[-28.71,38.64],[-28.6,38.59],[-28.63,38.52]]],[[[-31.12,39.46],[-31.17,39.37],[-31.25,39.37],[-31.27,39.45],[-31.24,39.52],[-31.12,39.46]]],[[[-25.05,37.01],[-25.01,36.93],[-25.17,36.94],[-25.19,36.99],[-25.05,37.01]]],[[[-27.99,39.1],[-27.93,39.01],[-28.04,39.02],[-28.09,39.07],[-27.99,39.1]]],[[[-31.06,39.67],[-31.12,39.63],[-31.16,39.71],[-31.13,39.76],[-31.07,39.74],[-31.06,39.67]]],[[[-16.27,33.05],[-16.37,33.03],[-16.41,33.05],[-16.32,33.13],[-16.27,33.12],[-16.27,33.05]]]]}},{"type":"Feature","properties":{"id":"RO","name":"Romania","eu":true},"geometry":{"type":"MultiPolygon","coordinates":[[[[27.17,47.95],[27.32,47.64],[27.39,47.59],[27.85,47.12],[28.08,46.98],[28.11,46.84],[28.24,46.62],[28.24,46.43],[28.14,46.26],[28.12,46.11],[28.16,45.69],[28.11,45.6],[28.21,45.47],[28.41,45.31],[28.75,45.25],[29.43,45.43],[29.61,45.35],[29.68,45.21],[29.61,44.85],[29.17,44.78],[28.99,44.68],[28.64,44.31],[28.66,43.99],[28.58,43.74],[28.22,43.77],[28.01,43.84],[27.92,43.99],[27.7,43.99],[27.39,44.02],[27.27,44.13],[26.95,44.14],[26.38,44.04],[26.36,44.04],[26.12,43.97],[25.89,43.8],[25.67,43.69],[25.54,43.64],[25.3,43.66],[24.65,43.72],[24.48,43.75],[24.32,43.7],[24.11,43.7],[23.63,43.79],[23.41,43.85],[23.0,43.81],[22.86,43.88],[22.9,43.98],[23.02,44.04],[22.97,44.1],[22.68,44.22],[22.48,44.45],[22.61,44.53],[22.73,44.54],[22.7,44.59],[22.42,44.69],[22.15,44.48],[22.02,44.6],[22.01,44.6],[21.65,44.67],[21.57,44.75],[21.36,44.82],[21.55,44.89],[21.41,45.0],[21.5,45.13],[21.48,45.19],[21.02,45.32],[20.82,45.49],[20.81,45.75],[20.66,45.79],[20.26,46.13],[20.71,46.16],[20.78,46.28],[21.04,46.25],[21.16,46.31],[21.3,46.43],[21.32,46.6],[21.44,46.65],[21.66,47.02],[22.01,47.4],[22.04,47.52],[22.13,47.6],[22.18,47.6],[22.22,47.67],[22.47,47.79],[22.67,47.8],[22.9,47.95],[23.19,48.11],[23.49,47.97],[23.57,48.01],[24.22,47.9],[24.57,47.96],[24.95,47.73],[25.09,47.75],[25.29,47.91],[25.89,47.96],[26.1,47.98],[26.21,48.02],[26.35,48.18],[26.63,48.26],[26.81,48.25],[27.02,48.12],[27.17,47.95]]]]}},{"type":"Feature","properties":{"id":"PL","name":"Poland","eu":true},"geometry":{"type":"MultiPolygon","coordinates":[[[[18.62,54.42],[18.95,54.36],[19.34,54.37],[19.64,54.46],[19.65,54.45],[19.26,54.34],[19.26,54.28],[19.41,54.28],[19.8,54.44],[20.31,54.4],[21.56,54.32],[22.79,54.36],[22.96,54.39],[23.32,54.25],[23.5,54.13],[23.51,53.96],[23.59,53.7],[23.86,53.2],[23.92,52.9],[23.9,52.7],[23.46,52.54],[23.18,52.28],[23.66,52.05],[23.62,51.8],[23.55,51.72],[23.62,51.51],[23.71,51.28],[24.09,50.86],[23.98,50.81],[24.09,50.64],[24.04,50.46],[23.72,50.38],[23.55,50.25],[22.69,49.57],[22.75,49.23],[22.83,49.07],[22.57,49.09],[22.07,49.22],[21.88,49.38],[21.4,49.43],[21.12,49.42],[20.94,49.31],[20.61,49.42],[20.57,49.38],[20.42,49.4],[20.17,49.33],[20.08,49.2],[19.88,49.2],[19.78,49.22],[19.78,49.39],[19.66,49.41],[19.47,49.61],[19.16,49.42],[19.0,49.41],[18.94,49.5],[18.85,49.52],[18.8,49.66],[18.62,49.75],[18.58,49.91],[18.33,49.93],[18.04,50.07],[17.85,49.99],[17.65,50.14],[17.74,50.21],[17.73,50.29],[17.43,50.25],[16.91,50.45],[16.89,50.41],[17.0,50.27],[16.86,50.2],[16.71,50.12],[16.58,50.14],[16.26,50.45],[16.39,50.54],[16.39,50.6],[16.11,50.66],[16.05,50.63],[15.8,50.74],[15.54,50.78],[15.38,50.8],[15.24,50.98],[15.06,51.01],[14.98,50.88],[14.82,50.87],[15.0,51.14],[15.02,51.28],[14.97,51.36],[14.93,51.47],[14.77,51.52],[14.73,51.58],[14.74,51.66],[14.61,51.83],[14.72,52.0],[14.76,52.07],[14.7,52.23],[14.6,52.27],[14.53,52.4],[14.63,52.52],[14.57,52.62],[14.44,52.68],[14.15,52.84],[14.16,52.9],[14.14,52.96],[14.34,53.06],[14.38,53.2],[14.43,53.26],[14.41,53.33],[14.27,53.7],[14.5,53.69],[14.58,53.82],[14.46,53.86],[14.21,53.84],[14.21,53.87],[14.23,53.93],[14.39,53.92],[14.64,54.0],[14.74,53.94],[14.85,54.05],[15.39,54.16],[16.11,54.28],[16.49,54.52],[16.7,54.57],[17.26,54.73],[17.67,54.78],[18.33,54.83],[18.54,54.58],[18.62,54.42]]]]}},{"type":"Feature","properties":{"id":"LT","name":"Lithuania","eu":true},"geometry":{"type":"MultiPolygon","coordinates":[[[[23.74,56.36],[24.15,56.25],[24.53,56.28],[24.67,56.39],[24.88,56.43],[25.11,56.19],[25.64,56.13],[25.82,56.05],[25.89,56.0],[26.05,55.94],[26.37,55.72],[26.63,55.68],[26.53,55.37],[26.73,55.31],[26.74,55.25],[26.67,55.16],[26.31,55.13],[26.19,55.0],[25.89,54.93],[25.75,54.81],[25.75,54.58],[25.57,54.36],[25.76,54.24],[25.77,54.18],[25.56,54.16],[25.55,54.27],[25.49,54.3],[25.24,54.25],[25.08,54.15],[24.84,54.15],[24.78,54.0],[24.62,54.0],[24.41,53.91],[24.19,53.96],[23.51,53.96],[23.5,54.13],[23.32,54.25],[22.96,54.39],[22.79,54.36],[22.69,54.57],[22.86,54.82],[22.59,55.07],[22.08,55.04],[21.65,55.18],[21.38,55.28],[21.27,55.25],[21.23,55.48],[21.1,55.66],[21.06,55.86],[21.06,56.07],[21.18,56.08],[21.27,56.19],[21.53,56.3],[21.98,56.39],[22.12,56.43],[22.64,56.37],[22.85,56.37],[22.92,56.4],[23.06,56.32],[23.27,56.37],[23.74,56.36]]]]}},{"type":"Feature","properties":{"id":"LU","name":"Luxembourg","eu":true},"geometry":{"type":"MultiPolygon","coordinates":[[[[6.14,50.13],[6.18,49.96],[6.37,49.85],[6.47,49.82],[6.48,49.72],[6.37,49.54],[6.37,49.46],[5.89,49.5],[5.82,49.55],[5.89,49.66],[5.75,49.85],[5.9,50.1],[6.02,50.18],[6.14,50.13]]]]}},{"type":"Feature","properties":{"id":"LV","name":"Latvia","eu":true},"geometry":{"type":"MultiPolygon","coordinates":[[[[26.29,57.6],[26.53,57.53],[26.91,57.62],[27.35,57.52],[27.53,57.52],[27.55,57.43],[27.69,57.37],[27.85,57.27],[27.68,56.86],[27.87,56.85],[28.11,56.57],[28.22,56.28],[28.15,56.17],[27.68,55.93],[27.59,55.8],[27.1,55.84],[26.82,55.69],[26.63,55.68],[26.37,55.72],[26.05,55.94],[25.89,56.0],[25.82,56.05],[25.64,56.13],[25.11,56.19],[24.88,56.43],[24.67,56.39],[24.53,56.28],[24.15,56.25],[23.74,56.36],[23.27,56.37],[23.06,56.32],[22.92,56.4],[22.85,56.37],[22.64,56.37],[22.12,56.43],[21.98,56.39],[21.53,56.3],[21.27,56.19],[21.18,56.08],[21.06,56.07],[20.98,56.34],[21.06,56.81],[21.37,57.01],[21.41,57.2],[21.45,57.31],[21.73,57.57],[22.52,57.74],[22.57,57.73],[22.66,57.58],[23.06,57.37],[23.15,57.32],[23.21,57.2],[23.28,57.08],[23.59,56.98],[23.93,57.01],[24.12,57.09],[24.34,57.2],[24.4,57.3],[24.35,57.88],[24.83,57.97],[25.05,58.04],[25.36,58.05],[25.89,57.85],[26.03,57.84],[26.29,57.6]]]]}},{"type":"Feature","properties":{"id":"MD","name":"Moldova","eu":false},"geometry":{"type":"MultiPolygon","coordinates":[[[[28.21,45.47],[28.11,45.6],[28.16,45.69],[28.12,46.11],[28.14,46.26],[28.24,46.43],[28.24,46.62],[28.11,46.84],[28.08,46.98],[27.85,47.12],[27.39,47.59],[27.32,47.64],[27.17,47.95],[27.02,48.12],[26.81,48.25],[26.63,48.26],[26.78,48.31],[26.81,48.4],[27.21,48.38],[27.68,48.46],[28.08,48.27],[28.31,48.23],[28.46,48.11],[28.72,48.14],[28.95,47.97],[29.15,47.96],[29.24,47.78],[29.18,47.5],[29.42,47.33],[29.56,47.33],[29.61,46.99],[29.93,46.78],[29.94,46.54],[30.04,46.4],[29.88,46.38],[29.74,46.43],[29.61,46.38],[29.45,46.47],[29.27,46.44],[29.19,46.52],[29.0,46.47],[28.96,46.29],[29.03,46.17],[28.98,46.05],[28.81,45.97],[28.74,45.84],[28.54,45.71],[28.48,45.52],[28.21,45.47]]]]}},{"type":"Feature","properties":{"id":"ME","name":"Montenegro","eu":false},"geometry":{"type":"MultiPolygon","coordinates":[[[[19.22,43.53],[19.67,43.19],[20.06,43.01],[20.22,42.95],[20.33,42.9],[20.35,42.83],[20.07,42.74],[20.1,42.63],[20.08,42.56],[19.83,42.47],[19.73,42.63],[19.73,42.64],[19.73,42.63],[19.62,42.58],[19.47,42.4],[19.32,42.22],[19.38,42.08],[19.38,41.98],[19.37,41.84],[19.18,41.94],[19.16,41.98],[19.14,42.02],[18.92,42.22],[18.89,42.25],[18.74,42.3],[18.68,42.4],[18.64,42.4],[18.58,42.4],[18.53,42.42],[18.44,42.56],[18.53,42.63],[18.57,42.66],[18.47,42.8],[18.5,42.98],[18.65,43.05],[18.69,43.24],[18.89,43.34],[19.01,43.27],[19.06,43.31],[18.96,43.46],[18.98,43.51],[19.01,43.53],[19.22,43.53]]]]}},{"type":"Feature","properties":{"id":"MK","name":"North Macedonia","eu":false},"geometry":{"type":"MultiPolygon","coordinates":[[[[22.36,42.31],[22.45,42.22],[22.51,42.16],[22.87,42.02],[22.88,41.98],[23.0,41.74],[22.99,41.67],[22.99,41.62],[22.97,41.52],[22.93,41.34],[22.88,41.34],[22.78,41.31],[22.72,41.16],[22.39,41.13],[22.33,41.12],[22.22,41.17],[21.93,41.1],[21.79,40.93],[20.98,40.86],[20.84,40.93],[20.74,40.93],[20.67,41.07],[20.6,41.09],[20.5,41.32],[20.54,41.4],[20.48,41.54],[20.56,41.58],[20.55,41.62],[20.54,41.67],[20.52,41.72],[20.56,41.85],[20.59,41.88],[20.75,41.89],[20.75,41.98],[20.77,42.03],[21.09,42.19],[21.21,42.11],[21.44,42.23],[21.47,42.27],[21.59,42.26],[22.26,42.35],[22.36,42.31]]]]}},{"type":"Feature","properties":{"id":"RS","name":"Serbia","eu":false},"geometry":{"type":"MultiPolygon","coordinates":[[[[20.26,46.13],[20.66,45.79],[20.81,45.75],[20.82,45.49],[21.02,45.32],[21.48,45.19],[21.5,45.13],[21.41,45.0],[21.55,44.89],[21.36,44.82],[21.57,44.75],[21.65,44.67],[22.01,44.6],[22.02,44.6],[22.15,44.48],[22.42,44.69],[22.7,44.59],[22.73,44.54],[22.61,44.53],[22.48,44.45],[22.68,44.22],[22.61,44.08],[22.54,44.05],[22.42,43.98],[22.37,43.79],[22.52,43.51],[22.67,43.4],[22.75,43.39],[23.01,43.19],[22.75,42.89],[22.52,42.87],[22.44,42.83],[22.46,42.65],[22.47,42.63],[22.53,42.44],[22.47,42.4],[22.36,42.31],[22.26,42.35],[21.59,42.26],[21.47,42.27],[21.44,42.23],[21.21,42.11],[21.09,42.19],[20.77,42.03],[20.75,41.98],[20.75,41.89],[20.59,41.88],[20.59,41.98],[20.59,42.03],[20.49,42.22],[20.27,42.4],[20.08,42.56],[20.1,42.63],[20.07,42.74],[20.35,42.83],[20.33,42.9],[20.22,42.95],[20.06,43.01],[19.67,43.19],[19.22,43.53],[19.5,43.64],[19.49,43.73],[19.31,43.94],[19.56,43.99],[19.5,44.1],[19.14,44.37],[19.15,44.51],[19.35,44.89],[19.02,44.86],[19.0,44.89],[19.13,44.95],[19.11,45.13],[19.43,45.17],[19.39,45.23],[19.13,45.29],[19.0,45.39],[19.01,45.43],[19.03,45.49],[19.07,45.52],[18.92,45.58],[18.95,45.66],[18.89,45.92],[19.03,45.94],[19.11,46.02],[19.3,45.99],[19.57,46.17],[19.7,46.19],[19.87,46.15],[20.22,46.13],[20.26,46.13]]]]}},{"type":"Feature","properties":{"id":"UA","name":"Ukraine","eu":false},"geometry":{"type":"MultiPolygon","coordinates":[[[[33.81,52.34],[34.06,52.18],[34.13,52.0],[34.39,51.81],[34.37,51.73],[34.14,51.66],[34.26,51.53],[34.3,51.27],[34.78,51.18],[35.12,51.2],[35.19,51.08],[35.36,51.03],[35.46,50.75],[35.43,50.57],[35.64,50.37],[36.05,50.44],[36.32,50.31],[36.65,50.24],[37.44,50.42],[37.6,50.31],[37.74,50.1],[38.04,49.95],[38.15,49.95],[38.27,50.07],[38.95,49.82],[39.17,49.86],[39.32,49.76],[39.57,49.73],[39.79,49.58],[40.09,49.57],[40.06,49.47],[40.17,49.35],[40.17,49.25],[39.95,49.08],[39.73,49.01],[39.82,48.92],[40.0,48.87],[39.96,48.82],[39.8,48.81],[39.71,48.68],[39.98,48.25],[39.78,47.89],[39.59,47.83],[38.9,47.86],[38.74,47.7],[38.47,47.64],[38.32,47.54],[38.26,47.36],[38.3,47.26],[38.23,47.12],[37.63,47.07],[36.85,46.77],[35.91,46.62],[34.77,46.17],[34.66,45.85],[34.97,45.64],[35.23,45.35],[35.47,45.31],[36.18,45.44],[36.47,45.29],[36.27,45.08],[35.91,45.03],[35.49,45.06],[35.11,44.87],[34.52,44.71],[34.04,44.44],[33.76,44.43],[33.55,44.54],[33.56,44.92],[33.44,45.12],[32.62,45.41],[32.76,45.56],[33.52,45.87],[33.55,46.04],[33.15,46.12],[32.79,46.06],[32.03,46.24],[31.94,46.32],[31.92,46.44],[32.13,46.57],[31.94,46.7],[30.8,46.48],[30.31,45.96],[29.78,45.57],[29.68,45.21],[29.61,45.35],[29.43,45.43],[28.75,45.25],[28.41,45.31],[28.21,45.47],[28.48,45.52],[28.54,45.71],[28.74,45.84],[28.81,45.97],[28.98,46.05],[29.03,46.17],[28.96,46.29],[29.0,46.47],[29.19,46.52],[29.27,46.44],[29.45,46.47],[29.61,46.38],[29.74,46.43],[29.88,46.38],[30.04,46.4],[29.94,46.54],[29.93,46.78],[29.61,46.99],[29.56,47.33],[29.42,47.33],[29.18,47.5],[29.24,47.78],[29.15,47.96],[28.95,47.97],[28.72,48.14],[28.46,48.11],[28.31,48.23],[28.08,48.27],[27.68,48.46],[27.21,48.38],[26.81,48.4],[26.78,48.31],[26.63,48.26],[26.35,48.18],[26.21,48.02],[26.1,47.98],[25.89,47.96],[25.29,47.91],[25.09,47.75],[24.95,47.73],[24.57,47.96],[24.22,47.9],[23.57,48.01],[23.49,47.97],[23.19,48.11],[22.9,47.95],[22.83,48.1],[22.62,48.11],[22.51,48.23],[22.16,48.4],[22.17,48.57],[22.33,48.69],[22.38,48.86],[22.57,49.09],[22.83,49.07],[22.75,49.23],[22.69,49.57],[23.55,50.25],[23.72,50.38],[24.04,50.46],[24.09,50.64],[23.98,50.81],[24.09,50.86],[23.71,51.28],[23.62,51.51],[23.65,51.53],[23.63,51.63],[23.76,51.66],[23.9,51.6],[24.01,51.59],[24.29,51.73],[24.32,51.83],[24.4,51.88],[24.97,51.9],[25.2,51.97],[25.42,51.92],[25.79,51.94],[25.89,51.92],[26.88,51.75],[27.17,51.77],[27.29,51.62],[27.69,51.6],[27.68,51.52],[27.74,51.49],[27.86,51.61],[28.02,51.57],[28.24,51.66],[28.36,51.56],[28.61,51.57],[28.71,51.46],[28.85,51.57],[29.11,51.64],[29.34,51.39],[29.69,51.52],[29.83,51.45],[30.18,51.5],[30.52,51.28],[30.64,51.36],[30.54,51.66],[30.96,52.07],[31.67,52.11],[31.79,52.11],[32.17,52.07],[32.3,52.14],[32.42,52.32],[32.78,52.26],[33.21,52.36],[33.81,52.34]]],[[[34.91,45.87],[34.86,45.82],[34.81,45.83],[34.84,45.88],[34.82,45.96],[34.89,45.93],[34.91,45.87]]],[[[35.18,46.13],[35.03,46.08],[35.01,46.14],[35.17,46.18],[35.18,46.13]]]]}},{"type":"Feature","properties":{"id":"UK","name":"United Kingdom","eu":false},"geometry":{"type":"MultiPolygon","coordinates":[[[[0.38,51.47],[0.26,51.48],[0.21,51.49],[0.15,51.51],[0.1,51.52],[0.01,51.51],[-0.08,51.51],[-0.11,51.51],[-0.15,51.49],[-0.24,51.49],[-0.22,51.47],[-0.13,51.49],[-0.11,51.51],[-0.02,51.49],[0.12,51.51],[0.22,51.48],[0.26,51.46],[0.38,51.46],[0.46,51.45],[0.67,51.46],[0.63,51.38],[0.8,51.44],[0.91,51.37],[0.95,51.35],[1.1,51.37],[1.42,51.36],[1.36,51.15],[1.1,51.07],[1.04,51.05],[0.98,51.0],[0.96,50.92],[0.91,50.92],[0.85,50.92],[0.26,50.75],[-0.04,50.8],[-0.22,50.83],[-0.79,50.74],[-0.93,50.84],[-0.99,50.8],[-1.02,50.83],[-1.07,50.81],[-1.13,50.84],[-1.21,50.81],[-1.37,50.88],[-1.45,50.91],[-1.34,50.8],[-1.69,50.74],[-1.74,50.72],[-2.03,50.72],[-1.98,50.65],[-2.02,50.6],[-2.51,50.61],[-2.58,50.63],[-2.95,50.72],[-3.26,50.66],[-3.51,50.52],[-3.51,50.38],[-3.68,50.22],[-3.84,50.23],[-3.93,50.3],[-4.08,50.3],[-4.12,50.35],[-4.19,50.42],[-4.22,50.48],[-4.29,50.38],[-4.74,50.32],[-4.82,50.23],[-5.07,50.18],[-5.08,50.03],[-5.2,49.98],[-5.45,50.11],[-5.68,50.07],[-5.66,50.15],[-5.29,50.27],[-5.07,50.44],[-5.0,50.56],[-4.81,50.61],[-4.62,50.74],[-4.55,50.93],[-4.5,51.01],[-4.31,51.01],[-4.16,51.19],[-3.72,51.23],[-3.06,51.19],[-2.99,51.32],[-2.81,51.47],[-2.68,51.48],[-2.67,51.54],[-2.58,51.63],[-2.53,51.68],[-2.58,51.66],[-2.67,51.64],[-3.08,51.5],[-3.19,51.41],[-3.38,51.39],[-3.64,51.47],[-3.75,51.52],[-3.89,51.62],[-4.18,51.55],[-4.28,51.57],[-4.26,51.62],[-4.05,51.7],[-4.52,51.74],[-4.98,51.62],[-5.16,51.72],[-5.16,51.83],[-5.23,51.9],[-5.04,52.02],[-4.28,52.24],[-3.93,52.55],[-4.08,52.59],[-4.09,52.73],[-4.18,52.89],[-4.52,52.82],[-4.64,52.85],[-4.17,53.2],[-4.01,53.25],[-3.75,53.32],[-3.36,53.35],[-3.1,53.27],[-3.11,53.3],[-3.17,53.38],[-3.06,53.43],[-2.93,53.31],[-2.75,53.31],[-2.83,53.33],[-2.95,53.37],[-3.01,53.44],[-3.09,53.56],[-2.96,53.7],[-2.83,53.72],[-3.06,53.78],[-3.05,53.88],[-2.88,53.97],[-2.9,54.04],[-2.83,54.11],[-2.87,54.18],[-3.15,54.09],[-3.36,54.23],[-3.62,54.53],[-3.36,54.89],[-3.25,54.95],[-3.12,54.93],[-3.06,54.99],[-3.51,54.97],[-3.97,54.78],[-4.37,54.85],[-4.44,54.71],[-4.83,54.86],[-4.97,54.71],[-5.15,54.9],[-5.13,54.98],[-5.04,55.0],[-5.0,55.11],[-4.98,55.15],[-4.87,55.22],[-4.85,55.26],[-4.64,55.47],[-4.66,55.57],[-4.85,55.67],[-4.89,55.71],[-4.86,55.78],[-4.89,55.87],[-4.85,55.95],[-4.48,55.92],[-4.39,55.89],[-4.48,55.93],[-4.68,55.97],[-4.71,55.99],[-4.76,56.01],[-4.85,55.99],[-4.88,56.06],[-4.75,56.2],[-4.9,56.06],[-5.05,55.81],[-5.35,55.86],[-5.37,55.71],[-5.17,55.67],[-5.1,55.53],[-5.12,55.46],[-5.27,55.46],[-5.42,55.6],[-5.56,55.4],[-5.72,55.37],[-5.56,56.27],[-5.45,56.53],[-5.61,56.51],[-5.85,56.35],[-6.23,56.33],[-6.23,56.58],[-6.07,56.74],[-5.83,56.85],[-5.78,57.07],[-5.96,57.07],[-6.08,57.16],[-6.32,57.22],[-6.68,57.45],[-6.6,57.54],[-6.3,57.63],[-6.18,57.56],[-6.08,57.39],[-5.92,57.31],[-5.5,57.37],[-5.8,57.41],[-5.83,57.52],[-5.75,57.59],[-5.79,57.8],[-5.32,57.93],[-5.4,58.04],[-5.33,58.11],[-5.33,58.22],[-5.17,58.3],[-5.01,58.59],[-4.25,58.54],[-3.09,58.63],[-3.07,58.44],[-3.15,58.36],[-3.95,57.97],[-4.03,57.86],[-3.91,57.81],[-3.93,57.74],[-4.1,57.69],[-4.11,57.61],[-4.21,57.53],[-4.43,57.49],[-4.2,57.49],[-4.03,57.58],[-3.41,57.72],[-2.8,57.7],[-2.58,57.7],[-2.51,57.7],[-2.09,57.7],[-1.89,57.63],[-1.82,57.5],[-2.09,57.13],[-2.21,56.91],[-2.43,56.76],[-2.58,56.55],[-3.05,56.46],[-3.14,56.42],[-3.25,56.35],[-2.87,56.44],[-2.67,56.27],[-3.4,56.03],[-3.85,56.12],[-3.82,56.1],[-3.52,56.0],[-3.43,55.99],[-3.08,55.95],[-2.75,56.06],[-2.58,56.01],[-2.51,55.99],[-2.37,55.95],[-2.03,55.81],[-1.63,55.55],[-1.46,55.07],[-1.36,54.94],[-1.35,54.86],[-1.24,54.72],[-1.23,54.72],[-1.22,54.71],[-1.21,54.71],[-1.21,54.71],[-1.18,54.7],[-1.18,54.7],[-1.18,54.69],[-1.19,54.7],[-1.19,54.69],[-1.19,54.69],[-1.2,54.68],[-1.2,54.68],[-1.18,54.66],[-1.16,54.65],[-1.17,54.64],[-1.17,54.63],[-1.16,54.63],[-1.16,54.63],[-1.17,54.63],[-1.17,54.62],[-1.18,54.62],[-1.18,54.62],[-1.18,54.61],[-1.18,54.61],[-1.18,54.6],[-1.18,54.6],[-1.19,54.59],[-1.19,54.59],[-1.2,54.59],[-1.21,54.58],[-1.23,54.58],[-1.22,54.58],[-1.2,54.58],[-1.2,54.58],[-1.16,54.6],[-1.15,54.6],[-1.16,54.61],[-1.15,54.62],[-1.15,54.63],[-1.14,54.63],[-1.14,54.64],[-1.13,54.64],[-1.13,54.63],[-0.79,54.56],[-0.56,54.46],[-0.21,54.16],[-0.15,54.12],[-0.2,54.04],[-0.18,53.96],[-0.0,53.76],[0.08,53.67],[-0.1,53.65],[-0.25,53.73],[-0.42,53.72],[-0.7,53.69],[-0.31,53.71],[0.02,53.53],[0.17,53.46],[0.26,53.33],[0.33,53.24],[0.33,53.11],[0.26,53.06],[0.08,52.93],[0.26,52.81],[0.4,52.83],[0.58,52.97],[1.06,52.96],[1.39,52.89],[1.68,52.74],[1.74,52.53],[1.55,52.09],[1.34,51.96],[1.1,51.94],[1.23,51.93],[1.25,51.87],[1.11,51.79],[0.91,51.78],[0.84,51.78],[0.92,51.72],[0.9,51.66],[0.59,51.63],[0.81,51.6],[0.82,51.54],[0.81,51.54],[0.63,51.53],[0.51,51.53],[0.38,51.47]]],[[[-5.98,55.06],[-5.96,54.98],[-5.71,54.8],[-5.87,54.69],[-5.91,54.65],[-5.86,54.63],[-5.55,54.63],[-5.47,54.5],[-5.49,54.41],[-5.54,54.39],[-5.62,54.52],[-5.65,54.46],[-5.56,54.34],[-5.61,54.26],[-5.84,54.23],[-5.93,54.09],[-6.04,54.04],[-6.27,54.1],[-6.59,54.04],[-6.65,54.09],[-6.64,54.18],[-6.79,54.21],[-6.86,54.33],[-7.02,54.41],[-7.19,54.34],[-7.16,54.24],[-7.3,54.13],[-7.61,54.15],[-7.85,54.23],[-8.1,54.41],[-8.13,54.44],[-8.0,54.53],[-7.7,54.61],[-7.82,54.7],[-7.61,54.75],[-7.26,55.07],[-7.15,55.04],[-7.05,55.06],[-6.99,55.11],[-6.94,55.18],[-6.48,55.24],[-6.21,55.21],[-6.1,55.2],[-6.04,55.11],[-5.98,55.06]]],[[[-6.44,57.97],[-6.97,57.74],[-7.06,57.79],[-6.93,57.91],[-7.06,57.97],[-7.12,58.09],[-7.06,58.2],[-6.35,58.46],[-6.26,58.52],[-6.19,58.46],[-6.2,58.34],[-6.35,58.2],[-6.44,57.97]]],[[[-0.98,60.58],[-1.12,60.42],[-1.05,60.33],[-1.12,60.31],[-1.3,59.92],[-1.36,59.98],[-1.31,60.17],[-1.51,60.18],[-1.66,60.26],[-1.48,60.38],[-1.54,60.51],[-1.43,60.59],[-1.35,60.58],[-1.3,60.46],[-1.19,60.48],[-1.12,60.7],[-0.86,60.81],[-0.81,60.77],[-0.85,60.62],[-0.98,60.58]]],[[[-5.7,56.1],[-5.95,55.82],[-6.07,55.78],[-6.05,55.66],[-6.32,55.6],[-6.26,55.78],[-6.35,55.78],[-6.42,55.7],[-6.52,55.7],[-6.41,55.87],[-6.21,55.92],[-6.1,55.9],[-5.81,56.1],[-5.72,56.14],[-5.7,56.1]]],[[[-7.23,57.1],[-7.36,57.1],[-7.42,57.22],[-7.37,57.52],[-7.53,57.6],[-7.45,57.66],[-7.27,57.67],[-7.18,57.73],[-7.07,57.69],[-7.11,57.6],[-7.16,57.6],[-7.14,57.53],[-7.21,57.43],[-7.23,57.1]]],[[[-3.01,59.01],[-2.89,58.98],[-2.89,59.06],[-2.82,59.09],[-2.77,59.01],[-2.8,58.97],[-2.76,58.92],[-2.88,58.88],[-3.0,58.95],[-3.26,58.95],[-3.29,58.91],[-3.22,58.86],[-3.24,58.78],[-3.32,58.8],[-3.41,58.88],[-3.34,59.11],[-3.26,59.15],[-3.09,59.15],[-3.07,59.19],[-2.98,59.18],[-2.97,59.15],[-3.03,59.1],[-3.01,59.01]]],[[[-4.22,53.2],[-4.33,53.13],[-4.42,53.13],[-4.5,53.2],[-4.6,53.3],[-4.55,53.4],[-4.41,53.43],[-4.11,53.3],[-4.22,53.2]]],[[[-1.2,50.6],[-1.3,50.58],[-1.49,50.66],[-1.51,50.69],[-1.3,50.77],[-1.11,50.69],[-1.2,50.6]]],[[[-6.24,57.01],[-6.32,56.94],[-6.45,57.01],[-6.34,57.06],[-6.24,57.01]]],[[[-6.88,56.49],[-6.89,56.45],[-6.98,56.45],[-7.0,56.5],[-6.83,56.54],[-6.8,56.51],[-6.88,56.49]]],[[[-6.49,56.62],[-6.63,56.57],[-6.65,56.6],[-6.53,56.68],[-6.47,56.68],[-6.49,56.62]]],[[[-7.39,57.0],[-7.45,56.93],[-7.53,56.96],[-7.54,57.02],[-7.39,57.0]]],[[[-6.13,58.24],[-6.2,58.16],[-6.28,58.2],[-6.17,58.28],[-6.13,58.24]]],[[[-2.95,59.36],[-2.93,59.26],[-3.05,59.27],[-3.05,59.32],[-2.95,59.36]]],[[[-2.0,60.14],[-2.05,60.08],[-2.1,60.1],[-2.14,60.14],[-2.1,60.19],[-2.0,60.14]]],[[[-6.24,49.95],[-6.35,49.88],[-6.38,49.94],[-6.28,50.0],[-6.24,49.95]]],[[[-1.58,59.51],[-1.7,59.5],[-1.66,59.58],[-1.56,59.58],[-1.58,59.51]]],[[[-6.17,56.12],[-6.2,56.0],[-6.3,56.01],[-6.2,56.13],[-6.17,56.12]]],[[[-4.34,59.08],[-4.4,59.04],[-4.48,59.05],[-4.45,59.12],[-4.36,59.13],[-4.34,59.08]]],[[[-6.1,56.88],[-6.16,56.85],[-6.24,56.88],[-6.13,56.97],[-6.1,56.88]]],[[[-2.76,59.13],[-2.8,59.13],[-2.83,59.21],[-2.77,59.25],[-2.72,59.13],[-2.76,59.13]]],[[[-2.92,58.83],[-2.93,58.74],[-2.99,58.75],[-3.02,58.8],[-2.97,58.86],[-2.92,58.83]]],[[[-2.5,59.22],[-2.58,59.21],[-2.6,59.23],[-2.62,59.29],[-2.58,59.31],[-2.55,59.31],[-2.5,59.22]]],[[[-2.58,59.05],[-2.64,59.05],[-2.63,59.12],[-2.58,59.13],[-2.55,59.14],[-2.53,59.1],[-2.58,59.05]]]]}},{"type":"Feature","properties":{"id":"SE","name":"Sweden","eu":true},"geometry":{"type":"MultiPolygon","coordinates":[[[[22.36,68.47],[23.05,68.3],[23.17,68.15],[23.3,68.14],[23.61,67.97],[23.62,67.92],[23.49,67.83],[23.54,67.59],[23.42,67.48],[23.74,67.42],[23.73,67.31],[23.59,67.26],[23.56,67.19],[23.97,66.84],[23.87,66.57],[23.68,66.46],[23.66,66.29],[23.73,66.2],[23.91,66.15],[24.12,65.92],[24.16,65.82],[23.68,65.82],[23.13,65.73],[22.81,65.83],[22.74,65.74],[22.4,65.82],[22.33,65.62],[22.18,65.47],[21.97,65.48],[21.87,65.27],[21.68,65.32],[21.51,65.07],[21.15,64.8],[21.25,64.63],[21.46,64.47],[21.46,64.4],[21.03,64.17],[20.55,63.75],[20.03,63.65],[19.74,63.48],[19.71,63.47],[19.65,63.48],[19.52,63.52],[19.49,63.48],[19.47,63.44],[19.29,63.47],[19.23,63.39],[19.16,63.3],[19.0,63.22],[18.74,63.27],[18.75,63.19],[18.53,63.08],[18.39,62.87],[18.19,62.78],[18.06,62.62],[17.47,62.36],[17.57,62.22],[17.49,62.14],[17.36,61.86],[17.49,61.67],[17.43,61.64],[17.26,61.69],[17.11,61.54],[17.18,61.07],[17.37,60.65],[17.58,60.63],[17.67,60.55],[17.96,60.61],[18.08,60.46],[18.32,60.36],[18.44,60.48],[18.61,60.31],[18.51,60.15],[18.66,60.14],[18.76,60.2],[18.93,59.95],[19.13,59.84],[19.12,59.74],[18.82,59.66],[18.78,59.35],[18.83,59.33],[18.92,59.45],[18.94,59.36],[18.53,59.04],[18.27,59.07],[17.86,58.84],[17.57,58.95],[17.58,58.86],[17.51,58.76],[17.22,58.72],[17.22,58.63],[17.07,58.67],[16.75,58.63],[16.9,58.52],[16.97,58.41],[16.92,58.34],[17.0,58.23],[16.67,58.0],[16.81,57.93],[16.73,57.78],[16.74,57.52],[16.49,57.19],[16.55,57.11],[16.45,56.98],[16.35,56.69],[16.06,56.33],[16.02,56.23],[15.79,56.07],[15.6,56.19],[15.35,56.13],[14.76,56.14],[14.68,56.01],[14.55,56.06],[14.23,55.83],[14.22,55.73],[14.32,55.56],[14.2,55.41],[13.72,55.42],[13.34,55.35],[13.02,55.41],[12.93,55.54],[13.01,55.7],[12.55,56.23],[12.78,56.24],[12.7,56.42],[12.9,56.45],[12.9,56.62],[12.73,56.67],[12.57,56.84],[12.38,56.93],[12.23,57.16],[12.13,57.24],[12.09,57.41],[11.93,57.38],[11.92,57.56],[11.85,57.62],[11.76,57.57],[11.73,57.72],[11.58,57.73],[11.66,57.86],[11.5,57.99],[11.4,58.26],[11.23,58.4],[11.22,58.73],[11.13,58.97],[11.29,59.08],[11.46,58.99],[11.48,58.89],[11.64,58.91],[11.78,59.19],[11.83,59.24],[11.72,59.57],[11.91,59.69],[11.93,59.79],[11.84,59.84],[12.2,59.91],[12.48,60.1],[12.59,60.5],[12.27,60.99],[12.67,61.06],[12.84,61.28],[12.84,61.37],[12.62,61.54],[12.4,61.58],[12.16,61.73],[12.3,62.27],[12.25,62.33],[12.06,62.62],[12.12,62.74],[12.09,62.89],[12.2,63.01],[12.05,63.18],[12.02,63.28],[12.11,63.39],[12.19,63.48],[12.18,63.53],[12.17,63.6],[12.69,63.98],[13.2,64.09],[13.99,64.03],[14.11,64.17],[14.14,64.2],[14.1,64.43],[13.7,64.61],[14.33,65.12],[14.38,65.25],[14.5,65.31],[14.51,65.58],[14.61,65.81],[14.57,65.97],[14.53,66.1],[14.52,66.13],[14.63,66.14],[14.68,66.14],[14.87,66.15],[14.95,66.15],[15.04,66.15],[15.31,66.23],[15.48,66.28],[15.45,66.35],[15.4,66.48],[15.56,66.57],[16.05,66.91],[16.37,67.05],[16.39,67.21],[16.12,67.46],[16.45,67.57],[16.73,67.9],[17.29,68.11],[17.65,68.04],[17.9,67.98],[18.11,68.17],[18.13,68.54],[18.44,68.57],[19.94,68.38],[20.12,68.46],[20.04,68.57],[20.31,68.8],[20.2,69.02],[20.55,69.06],[20.78,69.02],[20.93,68.9],[21.53,68.68],[22.06,68.48],[22.36,68.47]]],[[[19.18,57.94],[19.12,57.83],[18.79,57.65],[18.78,57.49],[18.9,57.42],[18.37,57.09],[18.33,56.96],[18.22,56.92],[18.17,56.94],[18.21,57.11],[18.15,57.17],[18.12,57.27],[18.17,57.37],[18.12,57.52],[18.45,57.8],[18.7,57.91],[18.8,57.88],[19.16,57.97],[19.18,57.94]]],[[[16.5,56.27],[16.42,56.21],[16.38,56.52],[16.53,56.76],[16.72,56.9],[16.92,57.17],[16.98,57.3],[17.07,57.35],[17.09,57.31],[17.04,57.17],[16.63,56.52],[16.5,56.27]]],[[[22.77,65.48],[22.71,65.45],[22.65,65.5],[22.53,65.52],[22.61,65.61],[22.73,65.55],[22.77,65.48]]],[[[20.95,63.76],[20.92,63.69],[20.86,63.7],[20.84,63.78],[20.89,63.82],[20.95,63.76]]],[[[12.9,55.37],[12.83,55.35],[12.79,55.41],[12.89,55.48],[12.9,55.37]]],[[[17.8,62.23],[17.71,62.16],[17.64,62.21],[17.68,62.25],[17.8,62.23]]],[[[19.35,57.93],[19.26,57.91],[19.23,57.96],[19.32,58.02],[19.35,57.93]]],[[[19.3,58.33],[19.2,58.33],[19.17,58.38],[19.19,58.41],[19.31,58.38],[19.3,58.33]]],[[[23.01,65.69],[22.98,65.64],[22.86,65.71],[22.91,65.76],[23.01,65.69]]],[[[18.33,58.91],[18.21,58.9],[18.19,58.93],[18.31,58.99],[18.33,58.91]]],[[[23.79,65.74],[23.8,65.68],[23.7,65.69],[23.67,65.73],[23.7,65.77],[23.79,65.74]]],[[[24.13,65.74],[24.17,65.66],[24.09,65.67],[24.05,65.7],[24.13,65.74]]]]}},{"type":"Feature","properties":{"id":"SI","name":"Slovenia","eu":true},"geometry":{"type":"MultiPolygon","coordinates":[[[[16.37,46.72],[16.6,46.48],[16.37,46.53],[16.24,46.49],[16.3,46.38],[16.14,46.39],[15.87,46.28],[15.79,46.26],[15.63,46.18],[15.63,46.09],[15.7,46.05],[15.71,45.98],[15.65,45.84],[15.4,45.79],[15.33,45.76],[15.28,45.73],[15.29,45.59],[15.36,45.49],[15.23,45.43],[14.98,45.51],[14.84,45.47],[14.77,45.51],[14.57,45.67],[14.39,45.5],[14.12,45.48],[14.11,45.48],[13.65,45.45],[13.61,45.52],[13.72,45.59],[13.84,45.59],[13.9,45.64],[13.78,45.75],[13.6,45.81],[13.6,45.82],[13.62,45.96],[13.52,45.98],[13.5,46.05],[13.64,46.17],[13.43,46.24],[13.4,46.31],[13.68,46.44],[13.71,46.52],[14.43,46.44],[14.57,46.37],[14.67,46.45],[14.77,46.5],[14.9,46.61],[15.07,46.65],[15.4,46.65],[15.5,46.63],[15.65,46.71],[15.79,46.71],[16.01,46.67],[16.0,46.84],[16.11,46.87],[16.31,46.85],[16.37,46.72]]]]}},{"type":"Feature","properties":{"id":"SK","name":"Slovakia","eu":true},"geometry":{"type":"MultiPolygon","coordinates":[[[[19.66,49.41],[19.78,49.39],[19.78,49.22],[19.88,49.2],[20.08,49.2],[20.17,49.33],[20.42,49.4],[20.57,49.38],[20.61,49.42],[20.94,49.31],[21.12,49.42],[21.4,49.43],[21.88,49.38],[22.07,49.22],[22.57,49.09],[22.38,48.86],[22.33,48.69],[22.17,48.57],[22.16,48.4],[22.12,48.38],[21.75,48.35],[21.61,48.49],[21.42,48.57],[21.13,48.51],[20.78,48.57],[20.54,48.54],[20.46,48.46],[20.3,48.29],[20.05,48.17],[19.91,48.15],[19.61,48.24],[19.45,48.1],[19.01,48.08],[18.93,48.06],[18.78,47.96],[18.78,47.88],[18.85,47.82],[18.32,47.74],[17.89,47.74],[17.71,47.76],[17.25,48.01],[17.16,48.01],[17.07,48.12],[16.98,48.17],[16.85,48.44],[16.95,48.54],[16.94,48.62],[17.17,48.85],[17.4,48.81],[17.65,48.85],[18.07,49.05],[18.17,49.26],[18.32,49.32],[18.4,49.4],[18.58,49.5],[18.85,49.52],[18.94,49.5],[19.0,49.41],[19.16,49.42],[19.47,49.61],[19.66,49.41]]]]}},{"type":"Feature","properties":{"id":"NO","name":"Norway","eu":false},"geometry":{"type":"MultiPolygon","coordinates":[[[[25.85,70.94],[25.2,70.47],[25.12,70.28],[25.21,70.23],[26.49,70.86],[26.62,70.81],[26.65,70.51],[26.84,70.49],[27.26,70.78],[27.38,70.99],[27.87,71.08],[28.27,70.94],[28.16,70.73],[28.26,70.54],[28.41,70.58],[28.75,70.8],[29.0,70.83],[29.44,70.71],[30.08,70.66],[30.84,70.43],[30.89,70.36],[30.78,70.29],[29.46,70.02],[29.82,69.88],[30.87,69.76],[30.92,69.61],[30.84,69.55],[30.53,69.55],[30.17,69.65],[30.16,69.54],[30.0,69.44],[29.37,69.31],[29.15,69.07],[28.93,69.05],[28.82,69.13],[28.89,69.25],[29.31,69.49],[29.12,69.69],[28.77,69.76],[28.38,69.83],[27.94,70.08],[27.65,70.07],[27.07,69.92],[26.49,69.94],[25.98,69.7],[25.91,69.57],[25.81,69.43],[25.82,69.37],[25.75,69.33],[25.7,69.24],[25.74,69.03],[25.66,68.93],[25.23,68.83],[25.09,68.64],[24.87,68.58],[23.92,68.83],[23.79,68.82],[23.65,68.71],[23.2,68.64],[22.4,68.73],[21.98,69.07],[21.69,69.24],[21.6,69.28],[21.53,69.29],[21.29,69.31],[21.04,69.24],[21.01,69.18],[21.07,69.11],[21.02,69.06],[20.73,69.11],[20.55,69.06],[20.2,69.02],[20.31,68.8],[20.04,68.57],[20.12,68.46],[19.94,68.38],[18.44,68.57],[18.13,68.54],[18.11,68.17],[17.9,67.98],[17.65,68.04],[17.29,68.11],[16.73,67.9],[16.45,67.57],[16.12,67.46],[16.39,67.21],[16.37,67.05],[16.05,66.91],[15.56,66.57],[15.4,66.48],[15.45,66.35],[15.48,66.28],[15.31,66.23],[15.04,66.15],[14.95,66.15],[14.87,66.15],[14.68,66.14],[14.63,66.14],[14.52,66.13],[14.53,66.1],[14.57,65.97],[14.61,65.81],[14.51,65.58],[14.5,65.31],[14.38,65.25],[14.33,65.12],[13.7,64.61],[14.1,64.43],[14.14,64.2],[14.11,64.17],[13.99,64.03],[13.2,64.09],[12.69,63.98],[12.17,63.6],[12.18,63.53],[12.19,63.48],[12.11,63.39],[12.02,63.28],[12.05,63.18],[12.2,63.01],[12.09,62.89],[12.12,62.74],[12.06,62.62],[12.25,62.33],[12.3,62.27],[12.16,61.73],[12.4,61.58],[12.62,61.54],[12.84,61.37],[12.84,61.28],[12.67,61.06],[12.27,60.99],[12.59,60.5],[12.48,60.1],[12.2,59.91],[11.84,59.84],[11.93,59.79],[11.91,59.69],[11.72,59.57],[11.83,59.24],[11.78,59.19],[11.64,58.91],[11.48,58.89],[11.46,58.99],[11.37,59.09],[11.35,59.11],[11.15,59.12],[11.01,59.04],[10.89,59.07],[10.67,59.34],[10.69,59.49],[10.58,59.73],[10.65,59.83],[10.76,59.83],[10.76,59.88],[10.71,59.88],[10.64,59.91],[10.5,59.79],[10.57,59.67],[10.6,59.65],[10.62,59.59],[10.57,59.55],[10.54,59.52],[10.43,59.53],[10.42,59.68],[10.37,59.71],[10.32,59.69],[10.38,59.61],[10.36,59.49],[10.47,59.4],[10.46,59.11],[10.34,59.16],[10.18,59.03],[9.92,58.98],[9.84,59.04],[9.58,58.86],[9.4,58.84],[9.37,58.77],[9.22,58.73],[8.79,58.41],[8.19,58.14],[7.63,57.99],[7.18,58.04],[7.03,58.01],[6.65,58.08],[6.65,58.2],[6.44,58.29],[5.7,58.55],[5.53,58.72],[5.62,59.03],[5.79,59.15],[5.82,59.03],[5.92,59.01],[5.96,59.27],[6.09,59.31],[5.9,59.43],[5.84,59.35],[5.6,59.29],[5.46,59.19],[5.35,59.22],[5.21,59.16],[5.21,59.37],[5.3,59.48],[5.3,59.59],[5.51,59.71],[5.51,59.57],[5.46,59.5],[5.55,59.56],[5.6,59.66],[5.82,59.65],[5.72,59.82],[6.05,60.06],[6.06,60.18],[5.69,59.98],[5.42,59.74],[5.23,59.65],[5.16,59.68],[5.14,59.89],[5.69,60.13],[5.6,60.21],[5.42,60.17],[5.26,60.21],[5.2,60.05],[5.02,60.18],[4.87,60.49],[4.97,60.54],[4.89,60.74],[5.14,60.84],[4.99,60.94],[5.23,61.09],[4.96,61.2],[4.99,61.36],[5.12,61.56],[4.99,61.88],[5.23,62.08],[5.49,62.02],[5.43,62.17],[5.53,62.24],[5.54,62.38],[6.35,62.35],[6.35,62.4],[6.15,62.46],[6.24,62.62],[6.66,62.65],[6.98,62.92],[7.55,63.08],[8.13,63.07],[8.1,63.22],[8.65,63.39],[8.76,63.42],[8.41,63.48],[8.54,63.62],[8.52,63.72],[8.66,63.83],[8.8,63.79],[8.9,63.66],[9.12,63.63],[9.22,63.53],[9.73,63.62],[9.89,63.48],[10.0,63.39],[10.05,63.39],[10.25,63.44],[10.85,63.44],[10.95,63.72],[10.17,63.53],[9.97,63.52],[9.64,63.76],[9.71,63.84],[9.95,63.92],[9.96,64.05],[10.12,64.17],[10.16,64.2],[10.23,64.24],[10.25,64.27],[10.43,64.32],[10.51,64.43],[11.14,64.67],[10.84,64.84],[10.86,64.93],[11.51,64.94],[11.7,65.08],[11.94,65.15],[11.96,65.14],[11.97,65.12],[11.93,65.1],[12.05,65.06],[12.12,65.44],[12.54,65.82],[12.47,66.02],[12.5,66.11],[12.72,66.11],[13.0,66.21],[13.11,66.45],[13.32,66.71],[14.08,67.11],[14.36,67.21],[14.77,67.48],[15.15,67.57],[15.28,67.69],[15.23,67.74],[14.91,67.71],[14.85,67.81],[14.91,67.89],[15.43,67.94],[15.51,68.1],[15.94,68.19],[16.21,68.02],[16.29,68.32],[16.26,68.38],[16.02,68.43],[15.22,68.27],[14.84,68.25],[14.71,68.17],[14.59,68.22],[14.17,68.21],[13.66,68.12],[13.59,68.15],[13.61,68.22],[13.85,68.31],[14.31,68.32],[15.24,68.55],[15.46,68.73],[15.59,69.07],[16.04,69.26],[16.06,69.19],[15.86,68.99],[16.01,68.76],[16.41,68.95],[16.74,68.73],[17.41,68.89],[17.46,69.08],[17.14,69.06],[16.98,69.1],[17.08,69.37],[17.35,69.49],[17.73,69.53],[18.4,69.42],[18.26,69.65],[18.88,70.1],[19.18,70.14],[19.48,70.04],[19.75,69.74],[20.21,69.86],[20.33,69.57],[20.68,69.9],[20.55,70.08],[20.6,70.15],[20.81,70.11],[21.04,69.91],[21.34,69.96],[21.76,69.96],[21.44,70.2],[21.75,70.31],[22.36,70.27],[23.35,70.55],[23.63,70.53],[23.82,70.67],[24.22,70.6],[24.38,70.67],[24.46,70.83],[24.65,70.95],[25.19,70.9],[25.53,71.11],[25.86,71.08],[25.85,70.94]]],[[[15.29,68.9],[15.35,68.83],[15.28,68.77],[15.36,68.71],[15.36,68.68],[14.93,68.56],[14.94,68.53],[14.87,68.5],[14.73,68.5],[14.69,68.56],[14.85,68.6],[14.78,68.67],[14.49,68.6],[14.41,68.67],[14.49,68.79],[14.77,68.85],[14.92,68.78],[14.97,68.8],[14.87,68.88],[14.87,68.93],[15.05,68.9],[15.02,68.98],[15.13,69.01],[15.27,68.96],[15.29,68.9]]],[[[23.42,70.81],[23.1,70.63],[23.1,70.6],[22.77,70.51],[22.21,70.51],[22.2,70.53],[22.31,70.6],[22.26,70.64],[22.4,70.7],[22.69,70.64],[22.77,70.74],[22.96,70.68],[23.1,70.72],[23.1,70.81],[23.25,70.79],[23.34,70.86],[23.42,70.81]]],[[[13.02,67.88],[12.85,67.84],[12.85,67.89],[13.07,68.07],[13.4,68.14],[13.38,68.04],[13.12,67.94],[13.02,67.88]]],[[[8.2,63.33],[8.06,63.28],[7.82,63.33],[7.8,63.39],[7.8,63.45],[7.99,63.48],[8.11,63.47],[8.22,63.39],[8.2,63.33]]],[[[19.76,70.25],[19.76,70.16],[19.83,70.21],[19.89,70.16],[20.01,70.12],[20.0,70.07],[19.88,70.05],[19.75,70.06],[19.69,70.1],[19.67,70.16],[19.51,70.23],[19.59,70.28],[19.76,70.25]]],[[[4.82,61.07],[4.79,61.03],[4.7,61.05],[4.59,60.96],[4.53,61.01],[4.56,61.07],[4.72,61.1],[4.81,61.14],[4.82,61.07]]],[[[12.0,65.64],[11.91,65.58],[11.78,65.64],[11.78,65.69],[11.96,65.73],[12.0,65.64]]],[[[12.99,66.64],[12.95,66.59],[12.93,66.63],[12.97,66.69],[13.06,66.72],[13.05,66.82],[13.11,66.82],[13.17,66.74],[13.09,66.73],[13.08,66.64],[12.99,66.64]]],[[[12.32,65.82],[12.24,65.81],[12.22,66.04],[12.26,66.06],[12.28,65.97],[12.35,65.86],[12.32,65.82]]],[[[24.04,71.02],[24.04,70.97],[24.12,70.98],[24.15,70.92],[23.98,70.92],[23.92,71.02],[24.04,71.02]]],[[[12.94,66.41],[12.86,66.37],[12.8,66.41],[12.85,66.47],[12.94,66.47],[12.94,66.41]]],[[[24.81,71.09],[24.77,71.02],[24.62,71.07],[24.69,71.12],[24.81,71.09]]],[[[19.54,70.13],[19.52,70.08],[19.34,70.14],[19.38,70.17],[19.54,70.13]]],[[[12.61,66.33],[12.52,66.31],[12.48,66.35],[12.54,66.39],[12.64,66.37],[12.61,66.33]]],[[[25.92,70.68],[25.8,70.64],[25.76,70.68],[25.89,70.74],[25.92,70.68]]],[[[5.9,59.27],[5.86,59.21],[5.77,59.22],[5.79,59.3],[5.9,59.27]]],[[[12.87,66.25],[12.76,66.22],[12.76,66.31],[12.85,66.31],[12.87,66.25]]],[[[26.2,71.01],[26.08,70.98],[26.06,71.0],[26.17,71.07],[26.23,71.05],[26.2,71.01]]],[[[12.7,66.61],[12.66,66.53],[12.56,66.55],[12.6,66.62],[12.7,66.61]]],[[[12.88,66.63],[12.86,66.52],[12.76,66.6],[12.81,66.65],[12.88,66.63]]],[[[12.41,66.16],[12.34,66.11],[12.28,66.15],[12.33,66.22],[12.41,66.16]]],[[[13.84,67.16],[13.65,67.14],[13.65,67.19],[13.85,67.19],[13.84,67.16]]],[[[6.6,62.82],[6.57,62.77],[6.46,62.78],[6.45,62.8],[6.47,62.83],[6.58,62.85],[6.6,62.82]]],[[[4.91,59.32],[4.89,59.24],[4.82,59.24],[4.77,59.32],[4.91,59.32]]],[[[14.01,67.43],[13.95,67.37],[13.85,67.41],[13.9,67.47],[14.01,67.43]]],[[[14.7,67.53],[14.62,67.49],[14.55,67.53],[14.68,67.59],[14.7,67.53]]],[[[14.41,67.39],[14.32,67.37],[14.26,67.4],[14.41,67.46],[14.41,67.39]]],[[[14.16,67.46],[14.07,67.39],[14.03,67.41],[14.08,67.52],[14.16,67.46]]],[[[12.52,66.8],[12.53,66.74],[12.41,66.74],[12.38,66.8],[12.52,66.8]]],[[[22.17,70.6],[22.02,70.57],[21.99,70.6],[22.09,70.66],[22.17,70.6]]],[[[10.88,64.74],[10.81,64.69],[10.73,64.76],[10.77,64.8],[10.88,64.74]]],[[[4.91,61.72],[4.89,61.61],[4.82,61.64],[4.82,61.72],[4.91,61.72]]],[[[11.78,65.71],[11.75,65.69],[11.67,65.75],[11.79,65.82],[11.78,65.71]]],[[[14.03,67.27],[13.92,67.19],[13.9,67.27],[13.95,67.31],[14.03,67.27]]],[[[13.69,67.08],[13.69,67.0],[13.56,67.03],[13.54,67.06],[13.69,67.08]]],[[[11.97,67.4],[11.8,67.39],[11.78,67.41],[11.81,67.44],[11.97,67.44],[11.97,67.4]]],[[[20.29,70.24],[20.21,70.19],[20.17,70.3],[20.2,70.33],[20.29,70.24]]],[[[16.75,68.93],[16.68,68.9],[16.64,68.95],[16.66,69.0],[16.73,69.0],[16.75,68.93]]],[[[12.18,65.92],[12.17,65.88],[12.12,65.91],[12.15,65.95],[12.18,65.92]]],[[[12.19,65.83],[12.16,65.83],[12.14,65.85],[12.16,65.88],[12.19,65.87],[12.19,65.83]]]]}}]}